personId,name,email,dob,address1,address2,city,state,zip,majorIds,bedId
cc3b2df2-a593-493e-af82-1f0d11c7439b,John Brown,john.brown@example.com,1967-12-14,726 Maple St,,Fairview,PA,,,a32b34cf-0356-4739-ab43-4a9ed70818f8
7c94c883-20d4-46ab-a81d-3e2f89e1b195,Alice Davis,alice.davis@example.com,1990-11-08,487 Pine St,,Springfield,CA,,,5de80aef-9ee8-47b1-942f-1b900c39b8e3
da88da77-1d78-4cc0-bc2f-80be282e8ce6,John Smith,john.smith@example.com,1988-06-27,860 Cedar St,,Madison,PA,,,6844029c-7429-44c5-b281-d0320f27618a
4632ced6-53f0-4eea-995d-2496d19a806c,Sarah Smith,sarah.smith@example.com,1981-06-28,189 Pine St,,Fairview,PA,,,
ae82afd8-fc74-4e1a-97b5-a4ab0312f053,Linda Brown,linda.brown@example.com,1994-03-08,538 Walnut St,,Greenville,OH,,,
e92704a6-7f85-4d98-b86a-720fea990af3,David Davis,david.davis@example.com,1988-05-02,609 Oak St,,Greenville,IL,,,
29468257-12ce-45da-a17c-c69e776c7e69,Emily Moore,emily.moore@example.com,1957-05-31,175 Walnut St,,Springfield,CA,,,
8078b4cf-c3e6-4cab-b5b0-731f3df79526,James Taylor,james.taylor@example.com,1954-10-24,253 Walnut St,,Georgetown,PA,,,
01da8291-d177-4719-8e5d-fef8cf93c6cb,Linda Doe,linda.doe@example.com,1999-10-05,898 Oak St,,Springfield,TX,,,2c06bf48-114b-4956-a59e-4c5d542c670a
08515d01-e2e0-4f59-bc57-caa688304fe3,Emily Williams,emily.williams@example.com,1988-12-16,960 Walnut St,,Riverside,NY,,,
50f27b10-2c31-4b52-b0fb-ec3017b33c12,James Wilson,james.wilson@example.com,1978-02-08,352 Cedar St,,Greenville,NY,,,7978a876-3872-4aa9-b08d-dfd1b2399832
a488f7c5-8363-4fcb-8914-425629869969,James Moore,james.moore@example.com,1992-03-22,579 Cedar St,,Fairview,NY,,,462b4758-e0a1-4064-b874-c0a66955ef9e
4a1fb3f4-e95c-4838-84d4-7a5a15841964,James Taylor,james.taylor@example.com,1986-05-27,815 Birch St,,Salem,PA,,,36b1b737-1e06-42ce-896e-7c0437a539a3
89c8661b-d1df-4556-aac9-902012465a32,Linda Taylor,linda.taylor@example.com,1967-04-08,400 Oak St,,Madison,FL,,,32c67036-2ab8-4afe-b304-cb55c66557a0
a8c2c000-620a-4d13-b4a4-29027cb4bfe3,Bob Wilson,bob.wilson@example.com,1997-12-21,139 Cedar St,,Salem,CA,,,
7ffb8d92-a96f-46fe-8b6f-b508cabeb2a5,David Brown,david.brown@example.com,1965-11-25,463 Birch St,,Riverside,OH,,,
584e06ea-e071-4106-a973-179c216e9a90,John Miller,john.miller@example.com,1952-12-21,628 Birch St,,Fairview,FL,,,
e94ec8e4-8e39-4d2a-a700-c0edd8a92ea6,Linda Wilson,linda.wilson@example.com,1962-11-02,247 Oak St,,Salem,CA,,,
d4833819-0914-40ce-bb97-a57fc9b6ab8a,Bob Moore,bob.moore@example.com,1966-08-29,800 Pine St,,Madison,OH,,,
18c46803-1a4a-40b4-bccb-66b9c1149108,James Johnson,james.johnson@example.com,2000-12-09,278 Walnut St,,Salem,CA,,,
35573984-6e6f-4668-b560-ab776e320378,Bob Taylor,bob.taylor@example.com,1994-10-31,700 Birch St,,Fairview,TX,,,f9a0fe69-b47e-4667-aa8c-2ebb9b836524
47d6c83e-2be8-4483-b1b3-4e31cd38865c,Emily Miller,emily.miller@example.com,1955-11-07,511 Spruce St,,Madison,FL,,,
eb0c6e28-ac6d-4545-9369-1b725af534f4,Emily Williams,emily.williams@example.com,1965-08-15,803 Birch St,,Fairview,IL,,,
f53ec2c2-316b-4fe9-b4d2-900753023f1d,Michael Brown,michael.brown@example.com,1961-07-15,688 Elm St,,Riverside,IL,,,3456dfd4-f900-4d41-9b82-28fe9e9f2945
815ca4d2-a7c8-41ed-9aa4-16b8420ebfb0,John Taylor,john.taylor@example.com,1983-09-29,278 Pine St,,Riverside,FL,,,
7794d6a2-f0c5-4b5e-b40a-dbeb671b7743,David Taylor,david.taylor@example.com,1971-03-18,848 Cedar St,,Springfield,OH,,,
98073235-da16-471c-b37d-f5906831febd,James Doe,james.doe@example.com,1978-08-04,582 Elm St,,Madison,IL,,,09ad6733-6d03-4986-854a-aedb97a1a00a
1e97f498-1941-4991-9a71-9ab0eefd955a,David Williams,david.williams@example.com,1999-03-13,520 Elm St,,Georgetown,TX,,,de0eb39b-a150-463d-9418-24c620002567
c518d43c-0380-440a-9405-e2eb0cde7875,John Miller,john.miller@example.com,1992-04-13,475 Elm St,,Springfield,PA,,,
6a562988-4371-4d77-b2f8-7f89dea91ad9,Jane Brown,jane.brown@example.com,1970-07-26,327 Oak St,,Fairview,CA,,,7bcb4c00-fad2-4186-be93-0b63c1878c88
fbb816b8-999e-4e41-a632-51077286f982,Emily Davis,emily.davis@example.com,1973-12-26,128 Pine St,,Riverside,PA,,,948ba62a-ad3f-4624-ad1a-b4820ef3b2f4
0228a629-6174-4b8f-b47c-ab94f8203c7a,Linda Moore,linda.moore@example.com,1973-05-04,203 Walnut St,,Madison,CA,,,
c288f77d-1652-491a-8cfa-2485d5e2a93a,John Brown,john.brown@example.com,1994-05-01,299 Cedar St,,Riverside,FL,,,ef9e7ce0-70c4-4b93-a6d6-a9347f08b976
6cbd8677-d58b-46ea-bfce-8cdd50707b88,Linda Brown,linda.brown@example.com,1983-05-24,677 Pine St,,Madison,IL,,,9e8b45c5-726c-4370-a887-9313d6ddaa8f
cd6d9f1d-f49e-48fe-9141-c68ac44bbc94,Bob Doe,bob.doe@example.com,1996-01-28,613 Elm St,,Georgetown,IL,,,
97a31b27-fc2e-4d52-9d0f-3ef6e78f437b,James Miller,james.miller@example.com,1968-10-28,798 Birch St,,Salem,CA,,,142d485b-1cbd-4f2d-bf6f-73cf80623f39
e785c076-3d68-4f39-a045-71ebccfebd2a,Jane Miller,jane.miller@example.com,1953-09-03,943 Cedar St,,Greenville,NY,,,
1694b8d8-3eb8-4c97-bd7e-74738706244f,Sarah Davis,sarah.davis@example.com,1966-09-12,155 Oak St,,Madison,CA,,,3d26c5b3-7730-413a-80d9-0f4927e431cc
8dcda979-71d2-4a12-b846-cb1a575bcb24,Jane Williams,jane.williams@example.com,1964-04-23,754 Birch St,,Georgetown,PA,,,
1d1eca38-bfa4-41ca-b768-0036ea7cb647,David Taylor,david.taylor@example.com,1955-01-23,834 Spruce St,,Greenville,PA,,,77f32289-2681-469a-8bba-b9f1ff18127e
5963eba5-d6da-4298-bb22-4e118b96f26b,Bob Miller,bob.miller@example.com,1962-03-19,394 Oak St,,Riverside,NY,,,3a0fafc3-3834-4d74-ad24-890c903a8864
1838a5b6-db38-4111-ab13-794b8ecb1129,David Moore,david.moore@example.com,1983-02-14,760 Birch St,,Fairview,PA,,,
4a39e728-56a1-46fd-b3f6-1a2a377ef8a2,David Taylor,david.taylor@example.com,1999-11-25,656 Walnut St,,Riverside,PA,,,69cea29b-e2ac-408c-8193-1ebd79fd9930
247c49ab-8742-41c3-b592-969fb8dead03,John Davis,john.davis@example.com,1996-05-11,252 Birch St,,Springfield,PA,,,bcab9cb7-bc70-421b-98be-7faf2a645be8
46fd3e75-1ada-42de-a42d-b388d189115b,Sarah Smith,sarah.smith@example.com,1978-10-26,342 Cedar St,,Greenville,IL,,,
da49a031-9770-4c30-9996-223912fbcc84,Emily Miller,emily.miller@example.com,1997-03-15,820 Elm St,,Salem,CA,,,991ab14c-02d3-42b3-95e1-c2bc8a79a4fd
a6d3929a-534e-4ca5-b047-bf249f6ad138,James Moore,james.moore@example.com,1979-04-13,592 Cedar St,,Fairview,PA,,,b10fd185-6173-48c1-83ef-625d492b53a1
da27e2ce-a782-4b5b-8a2f-0c5adf5a29d6,Michael Smith,michael.smith@example.com,1951-10-24,528 Elm St,,Georgetown,NY,,,94ee2e23-1902-48df-a950-fc9854b67058
ef024514-02d2-4f18-bcac-1725e8d5ca6d,Emily Wilson,emily.wilson@example.com,1961-12-13,527 Pine St,,Greenville,FL,,,bae407e1-9b79-4819-ae32-6c9454765ccb
347a7ff7-eecb-4386-8caa-4e54f10d6805,Linda Davis,linda.davis@example.com,1952-05-25,750 Oak St,,Springfield,IL,,,
8e16e3de-491e-4d75-ab7c-a3b08f70d741,Linda Taylor,linda.taylor@example.com,1964-03-10,675 Birch St,,Fairview,TX,,,8e6ed3c0-98db-45ca-b04f-fee011e89c3d
fa2bf3f0-c11b-4b4b-a79d-6a0104e85dde,James Smith,james.smith@example.com,1958-12-27,286 Pine St,,Madison,CA,,,9695f9c9-25ed-4696-8028-676bef1dd4d4
7e12c1cb-a807-427e-81cf-4aa24b7f255c,Linda Miller,linda.miller@example.com,1976-04-13,388 Walnut St,,Springfield,TX,,,
8a553fa7-20b0-4e0b-9280-1f202e307806,Emily Smith,emily.smith@example.com,1987-01-31,375 Walnut St,,Greenville,IL,,,
fab89d8e-5683-4f73-a579-7cb8988c6145,David Taylor,david.taylor@example.com,1986-09-25,990 Walnut St,,Madison,CA,,,6c4a84b8-4b77-4c21-aced-6140ee174c76
af854693-92c6-409d-8ec8-525189111571,Alice Taylor,alice.taylor@example.com,1975-11-20,408 Pine St,,Greenville,TX,,,bce56fd3-d7cc-43ec-a253-6a73b11d3c33
4c121605-fdfb-401e-80e6-8b52ca12619f,Sarah Moore,sarah.moore@example.com,1970-09-26,730 Spruce St,,Springfield,FL,,,
19fe2b94-8d96-4f58-8f63-d8ca5247687a,Alice Miller,alice.miller@example.com,1961-02-01,626 Oak St,,Springfield,IL,,,d7a023e7-06ef-454d-a130-45175c026213
61dd7da8-c2af-44fe-85ef-c3c801620293,Bob Johnson,bob.johnson@example.com,1953-10-17,842 Walnut St,,Riverside,NY,,,ca2a0a77-b729-400f-a6aa-e713cb2d3cfa
d8c2b8f8-fd6a-4636-b67e-ec152c5b28b9,Emily Williams,emily.williams@example.com,1986-08-10,729 Spruce St,,Fairview,TX,,,
246a56b8-b1f9-4d96-ae7f-5ddc7529b555,James Doe,james.doe@example.com,1961-02-25,739 Walnut St,,Georgetown,NY,,,
045be7b1-9789-4d9d-a2ef-adc2aac01c3b,Emily Taylor,emily.taylor@example.com,1989-10-20,272 Maple St,,Madison,FL,,,6e169c01-7dd0-42ba-b174-68bad99b39fa
7f4c1aa7-4b01-49a0-a7b1-f41c31161267,Linda Johnson,linda.johnson@example.com,1959-10-31,824 Birch St,,Riverside,OH,,,
1cac838c-3b3a-4a29-bdb5-7b15fe05b830,Alice Doe,alice.doe@example.com,1960-07-26,792 Oak St,,Springfield,OH,,,
382c6db3-8713-4d64-909b-75964faf3551,Michael Johnson,michael.johnson@example.com,1973-01-08,511 Cedar St,,Georgetown,PA,,,4c7c73bc-0e98-4469-8941-4b3ed2006c0f
23b9fcb4-afab-4747-9dee-a780479b3a66,John Doe,john.doe@example.com,1955-04-30,175 Walnut St,,Springfield,NY,,,
759566ac-45ae-46c6-ac63-c644aee5d3ce,Emily Doe,emily.doe@example.com,1994-08-25,542 Elm St,,Greenville,PA,,,d346b450-c9b9-4fc8-853a-b4c20869444e
714a3849-cb0e-48c3-881c-54e3e4d11d01,Michael Williams,michael.williams@example.com,1998-07-20,639 Elm St,,Madison,FL,,,82249eb1-2d06-4be1-bbda-2fb00a100e43
7bc39649-5227-4a35-854f-4395f95a8db4,Alice Brown,alice.brown@example.com,1951-08-15,482 Elm St,,Springfield,IL,,,f7f689c8-a3cd-46de-8772-9e1b543cbe52
31f6c12b-626f-4240-9812-eb5574aad97e,Emily Miller,emily.miller@example.com,1995-01-01,139 Cedar St,,Salem,FL,,,59bb6c45-aea3-472e-ba86-15da5556f12b
12eb440b-d29a-4a3c-9910-4e2fc132bb8f,Emily Taylor,emily.taylor@example.com,1965-11-09,943 Walnut St,,Madison,NY,,,
d3ee07ec-c304-4ca5-b030-99d6bda64631,Michael Moore,michael.moore@example.com,1980-09-14,593 Pine St,,Fairview,OH,,,
38ba935f-27c2-4646-b05a-be68376785ac,David Davis,david.davis@example.com,1957-05-16,893 Walnut St,,Madison,PA,,,
f8089b13-d053-43e7-9f47-c0b0ada1f750,Michael Moore,michael.moore@example.com,1965-08-28,670 Pine St,,Madison,IL,,,
5e4c7f3f-466a-4467-8220-309759ebb7b5,Jane Moore,jane.moore@example.com,1996-02-21,853 Birch St,,Salem,OH,,,
ed615055-d423-4d6b-9e14-916dc3e81822,Alice Williams,alice.williams@example.com,1951-09-20,371 Spruce St,,Madison,IL,,,6e665a7d-5923-47a9-92f5-038473a3c0f9
e8bb5ed6-08ca-4f95-9419-bb87343e27bf,Linda Moore,linda.moore@example.com,1987-01-28,140 Spruce St,,Riverside,IL,,,
82cae2ed-a579-400b-8b85-03cad4912311,Linda Wilson,linda.wilson@example.com,1983-06-06,643 Pine St,,Springfield,TX,,,fa2abf5b-0d5e-4b0a-bee6-093a199fe0a8
f73744f7-b62a-46bc-84b4-42ea0b5d9025,Alice Davis,alice.davis@example.com,1963-11-04,307 Pine St,,Riverside,TX,,,
c0ab2390-f464-4c9b-8b32-c5cb4378421a,Michael Davis,michael.davis@example.com,1969-01-22,528 Spruce St,,Riverside,IL,,,1c52741b-0032-442c-8ba7-f40ea6842111
d1c688e9-9e9f-4be4-9a96-4c430f431fe1,John Davis,john.davis@example.com,1979-08-14,559 Elm St,,Salem,PA,,,
e1c47840-8f9f-479f-b9db-bad86ea9e7bc,Jane Smith,jane.smith@example.com,1969-01-16,812 Walnut St,,Georgetown,NY,,,
a7db69fe-b1b7-48b8-9c97-770a678dd7f6,Linda Davis,linda.davis@example.com,1973-09-25,806 Cedar St,,Georgetown,OH,,,
e0c8b4ab-dfb9-4eff-b065-9c5ab0678799,Emily Smith,emily.smith@example.com,1966-01-13,659 Pine St,,Springfield,PA,,,6847605c-f9e8-46a5-8d45-dfffcf28a2ef
e5d773f6-5753-4432-87bb-41e37606f20c,Emily Miller,emily.miller@example.com,1973-02-02,968 Maple St,,Riverside,OH,,,1f0c01ec-297b-43b5-b10e-313e22e335df
68c08fbc-798a-43ba-a014-1f4de065eb57,James Brown,james.brown@example.com,1960-08-10,719 Spruce St,,Salem,IL,,,f16e20b0-33a1-4a5e-88c7-985739b9b706
b28ee461-26e7-417f-8cc5-87e34e0b0bef,Jane Doe,jane.doe@example.com,1953-05-24,298 Maple St,,Fairview,TX,,,
821c6556-10d2-46f3-9055-6864dcfd2de4,Sarah Moore,sarah.moore@example.com,1985-06-20,144 Oak St,,Riverside,TX,,,8c67d2ac-c3ec-49fe-9296-89d2c716cd11
03d7403d-5454-4e0f-9ad3-ddd8b797e3b4,Bob Miller,bob.miller@example.com,1956-11-16,404 Walnut St,,Salem,NY,,,
d4351341-2c92-418a-9353-c489f56815c1,Alice Doe,alice.doe@example.com,1992-08-22,733 Birch St,,Madison,IL,,,
ded2155a-c48d-480d-82c1-af501e4eed85,Sarah Miller,sarah.miller@example.com,1981-07-11,928 Oak St,,Georgetown,CA,,,a83f4974-6a50-4012-9592-62b9529f2eec
c02cb96c-77aa-4707-85e4-bbe4cdd68594,Linda Smith,linda.smith@example.com,1989-01-09,186 Oak St,,Fairview,CA,,,7f8830d9-8028-40f9-8d7f-cacd0c0fbef8
c116b0d0-05e2-470a-86e6-3befce08fc72,Michael Williams,michael.williams@example.com,1990-12-24,352 Pine St,,Riverside,TX,,,6e003e7c-d134-47e8-ab1b-e01583ce6fc1
4fd451c1-fb23-44b9-a5c2-c250735d6ac7,John Doe,john.doe@example.com,1987-08-02,631 Elm St,,Salem,PA,,,671a50d9-c3a7-4346-9473-438ef5798fc1
158699ce-7635-424d-bcce-5e02cf3fedc8,James Doe,james.doe@example.com,1981-06-28,581 Spruce St,,Fairview,CA,,,0316a48b-3f9b-4af7-8c11-88588989a144
2f74e21e-f98b-4255-9209-2ca9c6b70f8a,David Johnson,david.johnson@example.com,1970-07-04,342 Spruce St,,Fairview,OH,,,
a9aa16a4-6011-4753-aa53-0b03d3ca2a05,Bob Brown,bob.brown@example.com,1999-12-24,596 Maple St,,Salem,OH,,,1dbef4fb-df27-488d-ba65-44ed76a9a54c
1da2429c-451a-477a-8b5e-436e3b09a444,Jane Doe,jane.doe@example.com,1996-11-21,719 Pine St,,Springfield,NY,,,8c9174ef-0014-4a43-b95e-0fef4eff96a2
47bfce22-71b9-46bd-8b95-54c513c78423,Linda Davis,linda.davis@example.com,1965-10-07,320 Pine St,,Springfield,NY,,,
95d3b1a6-ed11-488a-9bc6-04e0e12dadd3,Sarah Davis,sarah.davis@example.com,1979-11-06,594 Maple St,,Greenville,PA,,,874fb19a-ac92-4fe0-946e-03fcc108f240
528e0ed5-13ac-4cef-8170-9c5d4a8e132d,John Smith,john.smith@example.com,1973-07-30,534 Walnut St,,Madison,OH,,,e91e426a-2e07-4352-92ee-6d9ac7b93cf8
f3b5e298-417e-4e2e-9680-9ba05415fda0,Linda Smith,linda.smith@example.com,1977-09-08,730 Oak St,,Salem,TX,,,6f0c391a-4cde-4d25-8abf-83e906cfced4
35ea6484-8320-4820-bd5f-487cb0cb9e84,Linda Johnson,linda.johnson@example.com,1955-01-09,995 Walnut St,,Riverside,OH,,,
770bd6e2-8672-4400-8029-d95cbeb3f19e,Michael Williams,michael.williams@example.com,1982-07-13,724 Oak St,,Madison,PA,,,92df954e-afc3-4a01-bd1b-4be837ae5bd5
b2c5ca28-b65a-4ac5-a581-925953f84276,Alice Wilson,alice.wilson@example.com,1953-01-06,625 Cedar St,,Riverside,TX,,,
dd334c52-66d7-45aa-a101-827e7be6319b,David Davis,david.davis@example.com,1982-12-15,408 Oak St,,Riverside,IL,,,
f45df616-f4c8-435a-8055-caa42643c2a8,David Smith,david.smith@example.com,1994-01-12,746 Spruce St,,Georgetown,NY,,,
d3da47db-407e-4ca1-bdc5-8b55be721a7c,Bob Johnson,bob.johnson@example.com,1979-12-04,343 Birch St,,Springfield,PA,,,1996cd3b-234b-44e9-ab3c-7b9be4eef17d
7f1c884d-743e-4240-9846-fe55de192aac,John Smith,john.smith@example.com,1966-03-04,232 Maple St,,Madison,TX,,,
a5996066-bb76-4f55-8110-1d0aaa233620,John Doe,john.doe@example.com,1983-12-22,547 Elm St,,Riverside,OH,,,170b57a1-eebe-48b2-9c67-1b1c131fd5d5
8253caa0-200f-4bf2-baca-76cc8edad32c,Linda Miller,linda.miller@example.com,1998-01-21,232 Birch St,,Riverside,CA,,,97e809d6-35b5-46d6-9e04-0e6f6beafd7a
d72759fe-1042-409b-b4f4-6d44f5efc4cb,Sarah Davis,sarah.davis@example.com,1982-02-14,402 Maple St,,Greenville,CA,,,57f286c5-02c0-4fa4-912e-809602d19847
0a94a606-7c12-433c-a529-e72f9595b705,Linda Moore,linda.moore@example.com,1998-10-02,793 Spruce St,,Greenville,TX,,,
204c3bf0-3333-41bb-af2f-9e7367684932,Linda Brown,linda.brown@example.com,1974-07-18,873 Elm St,,Greenville,TX,,,195cd3af-d548-476f-9cfd-c2bd22929ea9
6cefaf98-abaa-45de-9b09-6fbad7e31fc6,Sarah Miller,sarah.miller@example.com,1964-11-08,645 Oak St,,Fairview,CA,,,616afcbf-083b-4a87-92a2-cb4a92ed68ec
176775e1-871a-4f03-8f37-274f2a4577d1,David Doe,david.doe@example.com,1985-03-29,607 Maple St,,Riverside,CA,,,12b58749-6928-4fe5-9560-6e664b0e6919
48f5db62-e8a4-4e22-8724-f5d69c9f9c11,Michael Brown,michael.brown@example.com,1999-11-26,304 Oak St,,Fairview,FL,,,
1f24159b-9d38-489f-a11b-88a3ac3c8c84,Linda Miller,linda.miller@example.com,1964-08-16,377 Birch St,,Springfield,FL,,,f8c50616-dcfd-4162-82c2-c6e43a7b329a
b6dde964-a424-4990-8c5f-e92ab6bb5b54,Emily Williams,emily.williams@example.com,1966-01-31,825 Maple St,,Riverside,FL,,,
34d47b5c-3610-4d0e-b07d-f8c592cc2e69,Alice Wilson,alice.wilson@example.com,1988-03-30,940 Maple St,,Fairview,PA,,,c97b4f95-6aef-4b79-8900-a3cc3fe234cc
40c3708b-bb30-4387-9497-573ec4dead3e,Michael Johnson,michael.johnson@example.com,1993-05-13,295 Cedar St,,Fairview,TX,,,a0f2630a-1a9e-4845-947d-a665aac0d1be
460ffaae-94ce-4941-bc05-b9c02fd013e0,John Brown,john.brown@example.com,1964-11-03,759 Birch St,,Springfield,TX,,,
3167fa3a-f883-4988-88aa-9dbcb5596c80,James Davis,james.davis@example.com,1988-02-06,627 Birch St,,Riverside,CA,,,
9f1c2a77-5911-483a-9cfa-d5f0be382569,John Doe,john.doe@example.com,1983-07-12,541 Birch St,,Fairview,CA,,,
5dadd40d-f743-4b43-a60c-47a105d18362,Emily Davis,emily.davis@example.com,1995-02-20,463 Cedar St,,Greenville,CA,,,18623515-cc63-4894-9f12-5009cb93bde5
b590d641-9ff2-441e-a3f2-19b665c3ea23,Emily Miller,emily.miller@example.com,1972-08-31,293 Walnut St,,Riverside,FL,,,3bf5d279-e031-497e-a644-2a84bd59c337
6b225650-2bd3-4f48-b72b-a4b935e10b20,David Williams,david.williams@example.com,1950-08-28,672 Elm St,,Greenville,PA,,,
2f7e7ec1-1b83-45a5-a4cc-330a143eb1d2,John Davis,john.davis@example.com,1960-03-07,683 Walnut St,,Madison,PA,,,
87312ae4-ee14-4f0a-af4e-88a6f1eb3e21,Linda Miller,linda.miller@example.com,1958-03-02,351 Spruce St,,Greenville,NY,,,9705b660-2330-4920-b7a7-84e463f5dd61
f3b6ca19-5168-48d0-b6ad-3fa43938535b,Sarah Miller,sarah.miller@example.com,1958-12-11,844 Cedar St,,Riverside,FL,,,225ea93d-fab8-4b9f-86f2-fab5abdda973
ab762f13-dacd-4243-998a-4af716c8314f,Bob Williams,bob.williams@example.com,2000-03-29,455 Walnut St,,Madison,NY,,,
8273f658-2b68-4e04-9ec4-14e0b4b98a91,Linda Johnson,linda.johnson@example.com,1979-07-24,722 Elm St,,Salem,OH,,,
83414a8b-e799-45e1-bcd8-236395539131,Linda Miller,linda.miller@example.com,1990-01-31,109 Spruce St,,Springfield,OH,,,
b664a464-d3d9-4b79-b198-c0c8b1402d72,Jane Davis,jane.davis@example.com,1959-03-04,897 Spruce St,,Salem,IL,,,
7de927a0-5f3d-47e2-8e36-222fa018f2d2,David Williams,david.williams@example.com,1957-02-15,295 Cedar St,,Greenville,FL,,,f7b23fdc-50a6-4e90-ae5e-096c309ac002
a34fee01-b03c-4d4d-b577-87ea6a530710,Jane Smith,jane.smith@example.com,1996-11-03,377 Elm St,,Riverside,OH,,,46094cd4-b8df-40dd-a39f-7d62a22764d9
54267757-9ef4-45d8-8a1c-3c9a6a7b1487,Michael Johnson,michael.johnson@example.com,1961-09-08,316 Maple St,,Springfield,NY,,,
dfa31f1d-5bf2-4b7a-9923-612a5dbfc201,Emily Wilson,emily.wilson@example.com,1979-02-26,648 Walnut St,,Fairview,CA,,,8047d51d-83d1-4af2-845b-a1c7ba747d31
ba936c16-561a-4d12-806a-2bba55038ec3,Linda Doe,linda.doe@example.com,1989-05-20,899 Elm St,,Fairview,OH,,,d5319129-64a6-4937-92e1-6cf94deb4fab
c0d780c4-0d57-4208-8588-0e86361a8737,John Williams,john.williams@example.com,1995-09-02,904 Birch St,,Fairview,CA,,,
291848ff-90c0-450f-9684-1eb73d3e27ef,Linda Williams,linda.williams@example.com,1990-03-18,182 Maple St,,Springfield,PA,,,71f946b2-abf5-4615-a02a-ca46541c4527
53c3b8bc-866c-44d3-bacd-b210f44d0dfe,James Davis,james.davis@example.com,1984-01-29,995 Maple St,,Riverside,CA,,,
b7787b09-9d14-4f31-bce6-c2f6bd615acb,Linda Davis,linda.davis@example.com,1953-08-24,174 Maple St,,Riverside,NY,,,
6ae0a5e9-17ef-492d-af5a-b7cfe99e2cad,Michael Wilson,michael.wilson@example.com,1952-06-09,463 Pine St,,Georgetown,NY,,,5dc02927-955d-4e33-be64-a04fc7b8c697
55b0afda-791b-4166-b5d9-c25a63e531e9,Linda Wilson,linda.wilson@example.com,1980-02-05,105 Oak St,,Salem,IL,,,c74ed096-d219-4f55-8372-49096970447b
c256400c-aa47-4e53-8a2a-5b83fcdb114e,John Smith,john.smith@example.com,1987-07-13,627 Maple St,,Salem,TX,,,
91630278-099e-4562-8a72-cc10d0fb92e5,James Williams,james.williams@example.com,1960-06-05,666 Maple St,,Fairview,CA,,,ef1c95f9-3ac1-4a0f-ab0a-47b097298721
9be03614-315b-4994-9aac-b71aed672e3a,Linda Moore,linda.moore@example.com,1953-03-17,706 Oak St,,Springfield,OH,,,
3f618b83-662f-4b83-8500-059bf491a538,John Wilson,john.wilson@example.com,1950-07-06,769 Pine St,,Georgetown,OH,,,cfcc9154-d11b-4644-80ea-2bae592fa1e8
b4e0c7db-d4b2-41c4-b98c-5ae47e72f55d,Sarah Davis,sarah.davis@example.com,1999-01-18,514 Elm St,,Fairview,NY,,,
b77ff43b-393a-40fa-9061-d50077db1b16,Linda Brown,linda.brown@example.com,2000-12-02,552 Birch St,,Georgetown,TX,,,1507a6c3-b648-4a43-a1ea-bde92abfe983
fbe9bd77-fb4a-4702-981a-64409e974f18,Sarah Moore,sarah.moore@example.com,1976-07-20,644 Walnut St,,Salem,FL,,,740cc5da-704c-4bc0-9e74-0352f884e0d3
d4de73b7-bbc8-457c-8424-51b8242d3efb,Alice Smith,alice.smith@example.com,1989-12-08,536 Pine St,,Fairview,FL,,,
e601b2f0-5a46-470b-ba59-031b752a13ab,James Miller,james.miller@example.com,1956-09-28,301 Pine St,,Salem,OH,,,
3bb22ae0-6d14-4f64-9bec-d1a11c50df50,Jane Wilson,jane.wilson@example.com,1960-06-07,824 Maple St,,Riverside,FL,,,
0caffc4e-8785-40e2-82b1-90bbf11fcbbd,Sarah Miller,sarah.miller@example.com,1981-06-01,669 Walnut St,,Georgetown,NY,,,
31225015-358f-40ab-aa62-7572b3deb803,Bob Brown,bob.brown@example.com,1975-03-14,784 Spruce St,,Greenville,NY,,,ff419ee2-6047-4c92-9f7a-5f21ba620026
f1a84e33-5360-4391-bd2c-aa989a4129d7,Alice Brown,alice.brown@example.com,1997-05-26,597 Oak St,,Riverside,IL,,,
16ea6d91-0adb-4519-a1df-646310a47e8c,David Davis,david.davis@example.com,1973-03-30,861 Spruce St,,Madison,IL,,,
d88ed735-50c6-4989-a196-b7461e6f0be0,Michael Davis,michael.davis@example.com,1956-04-02,635 Birch St,,Georgetown,FL,,,
80540e3c-9c18-4019-b90a-ea3809c21bdf,Jane Taylor,jane.taylor@example.com,1960-08-04,908 Elm St,,Madison,TX,,,
52beacf2-e1b4-47d0-afd3-eab6606944b2,James Smith,james.smith@example.com,1959-07-03,426 Spruce St,,Madison,PA,,,88a7898f-f401-4e4e-a63a-311aaa9082df
dabb817c-6e8d-45ed-ad2f-290cb638f317,James Wilson,james.wilson@example.com,1998-10-12,772 Spruce St,,Madison,CA,,,59831adb-58d7-413e-a063-d6009d21d55c
1801d7ce-bbfa-47d0-96ab-4d4da5cee9be,James Johnson,james.johnson@example.com,1993-09-04,165 Cedar St,,Madison,OH,,,e5fa3e1e-18c8-43d1-baa3-109a4bc0f4b2
44faf00d-eb6d-4ba4-b3a3-f2d1ba964c52,Sarah Williams,sarah.williams@example.com,1976-10-15,502 Oak St,,Springfield,CA,,,
13d6992b-832f-4285-8e8a-267361962994,Jane Taylor,jane.taylor@example.com,1991-09-16,642 Elm St,,Georgetown,OH,,,a2ef8267-85f3-4d65-ba2a-510f9332b4be
6eedc736-0da2-45a9-af6e-f133158149e6,John Doe,john.doe@example.com,1973-04-26,277 Walnut St,,Fairview,CA,,,1acd86cc-9c2d-43b2-80d8-a2cd7b228d49
2ab4220d-33df-4d78-a6aa-0664db095b52,Michael Smith,michael.smith@example.com,1981-12-29,116 Maple St,,Greenville,OH,,,
c34fb079-9656-4ae5-be97-e2dd805d0ed1,Michael Brown,michael.brown@example.com,1986-11-08,235 Maple St,,Madison,PA,,,c9c0e545-21c1-4edb-9966-9fd0f48d5214
86954f1e-a7d5-43ee-bdd0-ea06b19be89c,Bob Williams,bob.williams@example.com,1970-06-08,685 Elm St,,Riverside,IL,,,
b7f7677b-eb1a-49c0-8b76-e4a276e4fe8b,Alice Williams,alice.williams@example.com,1996-02-12,912 Maple St,,Riverside,PA,,,9baa545b-e57a-4afb-855d-dfd4834f6fb1
905fc8b4-e94c-4fcc-87ab-56c62767ab41,Michael Johnson,michael.johnson@example.com,1969-10-01,924 Walnut St,,Georgetown,IL,,,933e6766-eab9-4878-b4b0-5f1dbfaaa72f
bcba9467-c68e-464d-a01c-003dd316c774,Bob Taylor,bob.taylor@example.com,1999-11-10,198 Maple St,,Georgetown,TX,,,aba54117-64ad-422a-b024-3dbf2351514e
8ddb9a2a-79c6-44f6-bb13-92e76332e097,James Doe,james.doe@example.com,1951-04-06,388 Pine St,,Fairview,IL,,,
00637df9-9984-4786-9aae-b6cb461052b4,James Smith,james.smith@example.com,1951-08-24,429 Maple St,,Greenville,TX,,,03ac3a01-232d-4f00-ae44-7f373feb1f89
44c5d291-653f-4db8-ac20-3067daa33e76,John Doe,john.doe@example.com,1991-04-09,181 Oak St,,Springfield,IL,,,900a485b-e646-41c5-a421-6a64b651e0e2
75e106f8-cb87-4099-a4a4-cf6dee72a878,Alice Miller,alice.miller@example.com,1997-05-29,850 Oak St,,Riverside,IL,,,4c769268-7fb7-4b8d-9757-7af35b490be7
539585b9-4bbf-4908-ae01-d61c8c6ddbc3,Alice Doe,alice.doe@example.com,1992-09-18,439 Spruce St,,Greenville,CA,,,
79c1633f-3ef7-4aec-b058-b151f19e123b,Michael Moore,michael.moore@example.com,1988-11-10,620 Maple St,,Fairview,CA,,,99430c20-d1de-47b5-b5b5-62842ee9d949
cee34e4c-213e-4d7d-bf79-d6030b50c30e,Sarah Brown,sarah.brown@example.com,1950-01-26,366 Pine St,,Madison,OH,,,fba35e1e-ea8b-4de2-bdb5-a8b9cafe3beb
9f5aae12-e38a-4270-be4b-9a45ec2121df,Linda Taylor,linda.taylor@example.com,1980-06-03,192 Maple St,,Salem,TX,,,
786c2c85-c996-47d8-8dff-3f08c32e5364,Alice Smith,alice.smith@example.com,1989-04-26,768 Walnut St,,Salem,CA,,,
9c208150-7536-44b2-baac-4d2d5dc936af,Bob Moore,bob.moore@example.com,1997-03-15,327 Elm St,,Springfield,IL,,,b192674d-e290-4405-8e93-8b21422a684b
cff4c0c5-789e-4fa2-8805-c235e992f057,Alice Moore,alice.moore@example.com,1999-09-19,804 Walnut St,,Springfield,OH,,,
abc01fe7-1ce1-4b99-8d5e-d10108312489,Bob Brown,bob.brown@example.com,1966-05-10,117 Elm St,,Greenville,CA,,,
4d0cb284-0fbf-4604-b475-cf6dbea23b19,John Taylor,john.taylor@example.com,1982-08-23,777 Walnut St,,Springfield,CA,,,
6bfb5077-63ce-43d6-8b85-cce1748db920,John Wilson,john.wilson@example.com,1966-09-25,600 Oak St,,Greenville,TX,,,
5ec69b85-d1c1-4d97-831d-9b3d2a2d2c66,David Davis,david.davis@example.com,1957-12-30,634 Spruce St,,Salem,NY,,,
690dd78c-8255-43cf-bf2f-9a30cc149775,Bob Taylor,bob.taylor@example.com,1990-08-25,252 Spruce St,,Salem,IL,,,3cdef63c-a9f7-4287-abb4-72c3b4426164
1b8e8b77-5b7f-4156-a936-798e96274df3,James Williams,james.williams@example.com,1959-08-10,290 Elm St,,Georgetown,PA,,,
cb3a6032-2670-4732-99d3-7372bae8174b,Emily Miller,emily.miller@example.com,1954-03-27,308 Oak St,,Springfield,NY,,,
ca5e74db-47cc-4a3f-983d-82d9fef012e9,Michael Miller,michael.miller@example.com,1987-07-15,510 Pine St,,Salem,PA,,,
e243259e-ee4d-4f85-95cb-d5b0009c17ba,Michael Smith,michael.smith@example.com,1968-03-28,523 Walnut St,,Greenville,IL,,,
adfc91a0-9c60-46b1-a423-ec7cc9330610,David Moore,david.moore@example.com,1979-05-21,913 Walnut St,,Salem,NY,,,
3877b291-a98e-4bec-9cda-c215758bc837,David Doe,david.doe@example.com,1986-05-29,630 Maple St,,Georgetown,OH,,,d0269af5-71a5-4cf8-937a-624b2c863f2a
965bcd9d-2907-440f-8060-b7d8557469dd,Jane Doe,jane.doe@example.com,1995-10-21,581 Spruce St,,Madison,OH,,,
04b26c61-310c-4c8c-9ec5-9665d8b92ad4,Michael Williams,michael.williams@example.com,1993-10-06,649 Birch St,,Fairview,FL,,,1304b701-3823-4aba-91ca-6a77d937b43c
b850801f-2b74-464e-a6e8-2d2e40fc201b,Alice Moore,alice.moore@example.com,1957-03-23,625 Oak St,,Madison,CA,,,debf3087-187f-45a2-86e8-5602af9742ee
beb52a2f-7046-4824-9785-dfee5f4dad65,Sarah Doe,sarah.doe@example.com,1973-06-02,451 Oak St,,Greenville,FL,,,
0cc76509-a1ed-4ba2-9f07-cc6da80b3ea6,Emily Brown,emily.brown@example.com,1975-06-28,944 Walnut St,,Riverside,FL,,,
bbc4990e-3df2-469e-8a90-830327702ed3,James Doe,james.doe@example.com,1965-11-23,340 Elm St,,Riverside,FL,,,51d15082-a0d6-465a-bb9c-93573b01c19c
acedd38b-16c7-40b8-969f-614b037c0d1d,Michael Taylor,michael.taylor@example.com,1973-01-10,674 Elm St,,Fairview,IL,,,8b6eaad7-6637-4d4d-a881-b811343759eb
c223c09e-88f9-4327-acd9-27252612b629,John Johnson,john.johnson@example.com,1992-09-17,629 Maple St,,Springfield,PA,,,d9fa43f5-0c36-4d39-842c-996b32d5f70d
44d23765-9efc-4353-ae34-d8085f37de51,Jane Doe,jane.doe@example.com,1968-04-30,686 Spruce St,,Springfield,FL,,,04eecae8-00b8-4e4a-92f3-0c326fe2eb05
f21084c6-4375-4d26-9a49-8d43e97152ec,John Williams,john.williams@example.com,1970-06-22,108 Spruce St,,Greenville,PA,,,
b6a4ee7f-df9a-4588-8d53-3e636ff6b667,John Wilson,john.wilson@example.com,1989-01-31,475 Elm St,,Georgetown,FL,,,
f4a0058c-294a-4a25-b246-baee51ffffa9,John Williams,john.williams@example.com,1963-05-25,931 Cedar St,,Georgetown,FL,,,83ad71e7-b6b2-4317-8006-1132d049cd79
349781c4-16c3-4c2d-ae56-6f4331dc6574,Alice Brown,alice.brown@example.com,1967-04-10,555 Birch St,,Madison,IL,,,
b6997836-1428-4b48-ada7-cb99e606c0a9,Emily Brown,emily.brown@example.com,1984-11-14,800 Cedar St,,Greenville,NY,,,1ecbb3c7-8801-45ec-b691-b1d71eb760cd
5a22f8df-7f49-4f1b-bc46-204e91c7d5bd,Jane Davis,jane.davis@example.com,1981-04-12,836 Maple St,,Madison,IL,,,58239fa0-0b62-4402-b9bf-0d7a674e344a
6facbbf2-7381-48a0-bbe7-b5dba8db7f99,Sarah Williams,sarah.williams@example.com,1986-09-27,147 Oak St,,Madison,NY,,,
ea8da2e5-1e8c-4ffa-ac74-ee9e4532893f,Linda Smith,linda.smith@example.com,1965-03-11,455 Walnut St,,Georgetown,PA,,,
a93966bb-167a-42c4-88ca-4e322b4b0d60,John Brown,john.brown@example.com,1992-04-29,574 Spruce St,,Fairview,TX,,,383f66b1-054c-431b-b34b-5cf32ce4d313
c4ffac0a-d52a-4084-9dd9-a56ecfc06b20,Jane Johnson,jane.johnson@example.com,1964-07-25,839 Maple St,,Madison,TX,,,9f3ce5fc-3804-41ee-87bd-7ada8896507a
b8f651b8-e9a2-4bba-840e-fa8b5a44c6e3,Michael Taylor,michael.taylor@example.com,1970-09-02,146 Oak St,,Greenville,NY,,,8e7867b8-bbbb-4fcd-993f-277177a5f9f0
5c69a349-e713-4ee2-a3f8-bd8f56612b68,John Doe,john.doe@example.com,1961-10-29,404 Walnut St,,Salem,PA,,,0c526090-e196-4f13-b6fd-3aaf8042a570
bc952707-43eb-4617-8a9a-bc71f6b43e1d,Alice Smith,alice.smith@example.com,1952-09-08,581 Birch St,,Greenville,NY,,,39eaa9eb-e0d1-4d56-ac36-36bc9dacf774
f2aba7ce-dc33-410e-9ff8-d56785d3faf4,David Johnson,david.johnson@example.com,1972-02-15,108 Maple St,,Fairview,CA,,,2e0ab814-5d93-4fed-9dab-2410e90e88b1
b01f5612-3a7d-4e5d-bba7-b010f64c16db,Bob Davis,bob.davis@example.com,1961-02-08,648 Pine St,,Madison,CA,,,9e1af453-4b50-4c9c-bf4f-ef1257eec70b
fcd36ac3-039d-4f64-8b94-d27d8c54a3a7,Jane Miller,jane.miller@example.com,1978-04-14,577 Pine St,,Springfield,OH,,,d421cb1b-5569-43d6-9a56-ded62bdba572
41b91830-0cba-4746-b4da-0bc9f48a8400,Alice Johnson,alice.johnson@example.com,1982-06-05,497 Maple St,,Riverside,TX,,,
2921459f-d59d-400f-bb43-d5b24a212231,Michael Moore,michael.moore@example.com,1998-05-08,864 Spruce St,,Springfield,OH,,,
daf33533-4992-458a-8e75-377f42d7a583,Bob Davis,bob.davis@example.com,1956-11-01,597 Pine St,,Fairview,IL,,,
3b6fc995-d874-4c36-9378-0089ddde22cb,Michael Doe,michael.doe@example.com,1985-08-22,853 Elm St,,Georgetown,FL,,,
fcf4437a-998b-4f94-9f44-7b36ed493588,Sarah Williams,sarah.williams@example.com,1968-08-29,282 Maple St,,Greenville,TX,,,098ffd57-9840-443d-a148-60db67e6abf0
5eee1249-4e58-4a97-956d-5857ee46c839,Sarah Doe,sarah.doe@example.com,1955-12-03,370 Cedar St,,Fairview,PA,,,dfbfd918-932e-4c0a-8034-bba464159268
d3dd41fe-32e7-44e5-b87f-0ac8e146771f,Sarah Brown,sarah.brown@example.com,1955-04-19,875 Pine St,,Madison,TX,,,
ca04197a-d226-4f63-9311-57fa33864112,Emily Williams,emily.williams@example.com,1955-01-22,150 Pine St,,Fairview,FL,,,
f542c272-13a9-40b4-a976-e4d374ddfd35,Alice Doe,alice.doe@example.com,1964-02-17,321 Oak St,,Springfield,OH,,,07c8089b-76d0-4eac-95d1-8c939ad691fb
a627125d-e17c-4fe0-a349-9c49cb7c256b,David Doe,david.doe@example.com,1982-10-15,583 Birch St,,Springfield,FL,,,
d332804e-024d-482c-bbb4-45f69085ed11,Sarah Johnson,sarah.johnson@example.com,1958-10-03,543 Spruce St,,Georgetown,NY,,,46cf6f83-5730-460a-b0cc-007666700acb
b288ce68-4c1a-4c4c-b008-80213a6c56f8,Jane Doe,jane.doe@example.com,1991-01-03,485 Cedar St,,Greenville,NY,,,b552dbdf-827c-4a5d-8e5a-b90e916fe631
f3d1973d-fc01-472f-886a-f5b467286a85,Jane Moore,jane.moore@example.com,1999-12-24,369 Walnut St,,Greenville,IL,,,a7d40cca-f408-469d-9fe3-9b74a3858d5d
41727210-8684-428c-b6d4-53ca3aa315f5,Michael Brown,michael.brown@example.com,1986-12-25,508 Oak St,,Georgetown,PA,,,
b3548abe-f4a5-4281-8c6f-513f6a5e47f9,Jane Doe,jane.doe@example.com,1967-01-03,874 Maple St,,Greenville,CA,,,
bf7c6ff1-1619-4b32-8ae5-025fc376a459,Jane Moore,jane.moore@example.com,1962-02-07,197 Maple St,,Madison,CA,,,a76b4430-11d6-45f1-8e29-d7e12ceb12df
caa8ae13-400e-4010-bf9b-5a63cc3eca16,Michael Moore,michael.moore@example.com,1954-10-11,913 Maple St,,Fairview,TX,,,
b05582bc-fad2-40b7-8725-eaf6c444efbf,James Williams,james.williams@example.com,1969-02-10,328 Oak St,,Springfield,TX,,,
875cf6e8-9bea-42ea-9009-39bc83eab73c,John Miller,john.miller@example.com,1958-01-19,464 Pine St,,Madison,IL,,,942f20dc-545a-43ba-9f9a-eeb7b1a632cb
9344fea9-ec73-4cf1-a047-97c2f7b3bf6c,David Miller,david.miller@example.com,1955-04-21,657 Oak St,,Salem,CA,,,
54a05644-6390-448a-a7b2-db84fb8088ba,Sarah Brown,sarah.brown@example.com,1969-09-28,253 Elm St,,Salem,FL,,,c1021238-025a-4a76-b43e-a359c16adb3f
64ca2330-70cb-424e-8438-bbed12111b87,Michael Taylor,michael.taylor@example.com,1973-04-02,702 Maple St,,Madison,FL,,,36d6129d-38e7-40ab-a66c-d0b261d6d65c
24d3765e-32c4-4a79-8d5a-102caa1c58b3,Alice Miller,alice.miller@example.com,1966-05-17,169 Walnut St,,Springfield,OH,,,ed114359-9eae-4069-9c1d-1755a14fc9a7
06cc6b51-2442-441b-9a6d-e41fcd51c15a,Sarah Moore,sarah.moore@example.com,1969-12-18,989 Cedar St,,Riverside,NY,,,
2c80be50-9a80-4b63-8b65-3206017069d8,Jane Brown,jane.brown@example.com,1959-06-20,442 Walnut St,,Salem,NY,,,
7c3d7b43-1a20-467e-9c55-985cabcb1251,Sarah Moore,sarah.moore@example.com,1958-08-20,627 Elm St,,Fairview,IL,,,e3ad3385-7c23-4b8c-bdc0-1c1ba86d7a20
d97ca407-b159-4ae2-8f34-c23c2560d65e,James Miller,james.miller@example.com,1991-09-09,781 Spruce St,,Greenville,PA,,,765707f9-8cd2-4fa4-86e9-28aa890a35c2
795b1102-4d28-4180-a1bc-5900ab4fdf8f,Linda Wilson,linda.wilson@example.com,1982-08-01,590 Walnut St,,Riverside,OH,,,1a952707-814c-4c57-8fe0-afdf2cfe86a1
b0e88ce6-66ec-4880-ac85-50098d34fdda,Bob Doe,bob.doe@example.com,1959-10-06,202 Cedar St,,Springfield,TX,,,89472105-ccc1-4597-9340-4a076824bd97
227f4ad9-372b-4b7f-9e03-a2124bc2f1ce,Bob Williams,bob.williams@example.com,1969-02-05,205 Oak St,,Springfield,CA,,,e0e98e70-5729-476a-84f7-337aca903ced
9d8036ac-c8c6-44c5-9c79-4c0d97a4f443,John Wilson,john.wilson@example.com,1978-05-28,875 Birch St,,Georgetown,PA,,,daa68a02-2b47-4b6d-8b8f-198fef7b5c0d
bb47c604-a1c3-4727-a0e1-6058554c1f6e,Jane Wilson,jane.wilson@example.com,1958-08-03,887 Spruce St,,Riverside,TX,,,
508a96aa-8c75-4376-b346-4766d6f9abff,Emily Miller,emily.miller@example.com,1980-06-05,409 Oak St,,Madison,FL,,,
2718103d-6349-4be8-8772-215f2e798532,Sarah Williams,sarah.williams@example.com,1998-02-19,419 Cedar St,,Georgetown,CA,,,1f627e1f-b946-4efa-8f3b-7d4e52881cd2
7fe32a78-04b7-41f2-b6da-7d4e35b5e265,Emily Taylor,emily.taylor@example.com,1993-09-12,878 Walnut St,,Riverside,TX,,,43c66125-612e-4c20-a910-963a488fd9bf
7a36177f-7fd7-49f7-94c9-89cf6bb05e7a,David Williams,david.williams@example.com,1984-11-13,573 Oak St,,Springfield,FL,,,b923d210-f35a-4e7f-b00e-878cd9ca9a5a
8105e37a-29e3-48c7-8d4d-7d6f77436f0c,David Wilson,david.wilson@example.com,1961-02-28,233 Walnut St,,Fairview,TX,,,2ced5f6d-0204-4afe-bf35-0a9086e391f9
e444e6ea-d8c2-4806-8476-2c385e1b9164,Linda Smith,linda.smith@example.com,1968-01-20,419 Cedar St,,Greenville,NY,,,098bd0c7-9451-4795-88c9-5a700dabd503
3929d2ce-e66d-4cf3-a4da-5feda3aa1254,Bob Taylor,bob.taylor@example.com,1960-07-28,928 Oak St,,Greenville,PA,,,ac86f01c-1b66-4b0f-9a09-e363de85d991
9b9b198e-063f-4ac1-9f04-396d8e4f99f6,Emily Doe,emily.doe@example.com,1960-05-13,396 Maple St,,Georgetown,PA,,,
57836b2f-9d9a-4ae8-9045-daad55792145,James Moore,james.moore@example.com,1967-06-23,844 Cedar St,,Salem,CA,,,
b496fba6-814c-4fc2-9b12-dbdddaf3cedc,Alice Johnson,alice.johnson@example.com,1963-07-21,563 Maple St,,Greenville,IL,,,
2e63d519-19db-4ddb-99fb-0f846b02622e,Emily Johnson,emily.johnson@example.com,1993-05-12,659 Oak St,,Georgetown,FL,,,
1c73604f-4ee9-4d5e-a8c4-fb060b591625,John Smith,john.smith@example.com,1980-03-30,705 Maple St,,Riverside,NY,,,3ffdf247-6622-4658-91b7-46182798fe49
beec88de-84df-4299-8ee0-17f92239f17b,Sarah Doe,sarah.doe@example.com,1965-11-18,422 Spruce St,,Salem,OH,,,965f821d-6fdc-4de2-be91-e871b21171c2
acba9d80-b2a5-4b6d-a317-71a8fb226ea1,Bob Wilson,bob.wilson@example.com,1976-09-19,325 Cedar St,,Salem,OH,,,
6c819efc-057f-4a09-bfb7-e24567423413,Linda Brown,linda.brown@example.com,1989-10-09,593 Oak St,,Madison,OH,,,
bbfa0af2-0c5a-4751-86c4-02b366a71d0e,Alice Taylor,alice.taylor@example.com,1951-05-28,753 Oak St,,Fairview,PA,,,a2c15aa6-1cf7-49b9-b47a-05b5eb486ca9
47a9d6e5-a8b3-4700-80aa-e2d5cc10f329,Michael Taylor,michael.taylor@example.com,1976-07-06,356 Oak St,,Fairview,IL,,,
0c07b68a-743d-4db1-8c0a-3f0e074dd59c,Alice Davis,alice.davis@example.com,1976-04-22,101 Maple St,,Fairview,OH,,,ee207dcf-337d-46b1-8104-bc19cb2578b7
cd277fc1-0e16-4621-b5f5-6726e1ce1d32,Bob Miller,bob.miller@example.com,1965-01-20,215 Maple St,,Georgetown,CA,,,
585da966-a222-40ef-aaf5-49b04a6bdc68,Bob Davis,bob.davis@example.com,1960-02-13,605 Pine St,,Greenville,PA,,,
b2bf6714-14d1-44b7-b357-19f64a1a6a63,Linda Smith,linda.smith@example.com,1972-05-25,708 Cedar St,,Georgetown,IL,,,486379bd-5a3d-4775-8bde-28efdf8b8ff9
2dc0411a-92a0-4ed2-8d34-e4a0ce72e9eb,Linda Smith,linda.smith@example.com,1997-02-07,964 Birch St,,Riverside,CA,,,dcc14dc1-19e7-4b17-a729-d9880699aed1
d1915c31-49f0-4cbd-b722-ae6799089f5f,David Wilson,david.wilson@example.com,1994-09-23,607 Pine St,,Salem,TX,,,1ad59d05-2f2f-4d4e-8628-9c5ed503b731
e3d12913-c2f7-469b-ae6c-4ac59b784b84,Alice Johnson,alice.johnson@example.com,1953-07-16,143 Birch St,,Madison,IL,,,9db29cdf-a7c1-4588-8f6c-adbdd86645f4
6e01fd18-d6ff-4d16-b072-e59022d40693,Emily Moore,emily.moore@example.com,1973-08-08,451 Oak St,,Fairview,IL,,,
b2a0038e-3f63-488c-a13c-4a41e63374e0,David Smith,david.smith@example.com,1999-08-15,591 Cedar St,,Georgetown,IL,,,
0d7e5eb5-dcb0-463a-b5a3-5d3c6144c5f5,James Williams,james.williams@example.com,1990-11-07,964 Walnut St,,Greenville,IL,,,e2369497-0552-4f01-b782-9f0625a62f17
ecc5ca60-e763-4c15-97d1-adc9d4973de8,James Johnson,james.johnson@example.com,1980-10-22,441 Cedar St,,Madison,CA,,,11c0fb9f-a16f-4ded-a480-02a4ff2fd2a6
04c9aee1-86ea-4fd6-af39-54084c946f96,David Johnson,david.johnson@example.com,1968-01-17,206 Oak St,,Salem,PA,,,
3a41b9c3-070c-4104-bce8-b0b33fe55e5e,David Taylor,david.taylor@example.com,1995-01-14,196 Walnut St,,Salem,OH,,,
f07a3cf1-8fbf-44b3-a0c1-0369ba67a69d,Michael Doe,michael.doe@example.com,1994-08-05,580 Walnut St,,Springfield,OH,,,
fc153fde-6cfa-4f01-ac9e-95e8abf5e5e4,James Doe,james.doe@example.com,1993-09-01,233 Elm St,,Springfield,IL,,,
91442cb8-33d1-4cb2-8c1d-af2a0bcc8d26,Emily Moore,emily.moore@example.com,1997-01-06,196 Cedar St,,Georgetown,OH,,,b923ecd3-c602-421b-baf2-54eb75fd4a03
b6824ebd-a3f3-4fc1-84b4-af4a6e1bf7b4,Emily Wilson,emily.wilson@example.com,1981-10-06,755 Walnut St,,Salem,CA,,,
47f16a47-f4d8-4d23-b131-98c1b31b4987,Bob Moore,bob.moore@example.com,1966-09-05,422 Maple St,,Madison,FL,,,
c86ece25-c65a-4cef-a688-bb04cfd6f24d,Jane Williams,jane.williams@example.com,1972-04-23,927 Spruce St,,Madison,OH,,,
d482f6b7-786e-4d6f-887c-938b4b542b2c,Michael Johnson,michael.johnson@example.com,1963-03-01,106 Birch St,,Georgetown,PA,,,
30a3f909-8053-4d2b-a4d6-7ec12a2e0c19,Emily Doe,emily.doe@example.com,1992-11-06,345 Walnut St,,Georgetown,TX,,,
22b89658-4463-4248-9a96-4cb8e786781e,Bob Moore,bob.moore@example.com,1985-06-10,805 Oak St,,Salem,PA,,,333ae854-7506-41b8-974e-cc17910340b8
45e12600-4d0e-417d-b773-f4959cf6a132,Bob Moore,bob.moore@example.com,1961-11-09,864 Walnut St,,Fairview,NY,,,
b3412753-ec36-4ab6-9b7d-79308a61653f,Linda Smith,linda.smith@example.com,1980-09-09,469 Maple St,,Riverside,IL,,,f7d367ad-21bc-42b2-9810-021af00ab496
29fb6bac-aabf-44a9-89c9-87f3a634cc3e,Emily Johnson,emily.johnson@example.com,1994-12-27,927 Walnut St,,Riverside,IL,,,6f3ea1f4-86e7-44f9-ab74-2e25e90bd6cc
df60b199-2c76-472e-8fa6-d1ed5cfff5cb,James Moore,james.moore@example.com,1989-01-26,437 Walnut St,,Georgetown,FL,,,1ecb9d2d-ea9f-4651-be3b-614dc372c162
8a440248-4b3a-4044-8832-90c6a7975615,John Miller,john.miller@example.com,1980-11-22,758 Oak St,,Fairview,TX,,,
6134ab9b-fb68-42e6-8fc6-fcd6bd179622,Emily Doe,emily.doe@example.com,1998-09-14,822 Elm St,,Salem,PA,,,
578bf5f7-fb3a-4232-b3c0-8e29a9954527,John Miller,john.miller@example.com,1960-01-09,648 Pine St,,Fairview,PA,,,03042b3d-983b-427e-9092-dcb443b99430
998c99a9-b499-40a5-962f-de906fa4debd,Bob Smith,bob.smith@example.com,1965-01-24,577 Oak St,,Salem,PA,,,
209a5493-35b3-4fd2-87d6-8c1fbb85418e,Emily Doe,emily.doe@example.com,1959-11-03,222 Spruce St,,Greenville,TX,,,ef7a534a-15e0-4f12-9bf5-9d610b8bf9ec
88684fae-3fb6-4314-a2f7-d6eb4de3185f,Sarah Wilson,sarah.wilson@example.com,1984-09-25,844 Spruce St,,Salem,OH,,,a2729cb8-3412-4387-8e2f-ea4c20e6dc99
b4972f9a-92b3-44d8-a9b7-0697b454e2cf,Linda Wilson,linda.wilson@example.com,1980-07-17,945 Maple St,,Fairview,CA,,,
d62cf51f-9c56-4a1d-b1ff-614e51c3d9ae,Linda Brown,linda.brown@example.com,1951-08-10,347 Oak St,,Greenville,CA,,,
717dd358-efae-416b-9502-844986f0ea0e,Sarah Williams,sarah.williams@example.com,1952-01-13,123 Cedar St,,Georgetown,FL,,,
0a14b760-e7b6-4faa-a97b-d2d28d09d3bb,Alice Davis,alice.davis@example.com,1999-06-21,395 Maple St,,Salem,FL,,,fc3eada5-e8ad-434f-903f-ede4d6864049
7bc2b9d5-a62e-44e0-ac43-b969aa6e9fc7,Emily Doe,emily.doe@example.com,1973-04-18,647 Cedar St,,Madison,CA,,,
e4551f3d-0143-4a91-84ff-e193f9ad7626,John Taylor,john.taylor@example.com,1974-05-17,769 Oak St,,Salem,NY,,,906ee3d8-793d-408a-b108-619272679193
93d79243-f5ea-4b30-b0ca-763fd11bd2ec,Emily Brown,emily.brown@example.com,1961-06-09,959 Walnut St,,Riverside,NY,,,4964a5b9-4bca-4651-ab85-4ab9c9504fd2
303b5731-cf66-4e86-8425-0fa004cfcb74,Bob Davis,bob.davis@example.com,1951-06-10,931 Oak St,,Springfield,NY,,,
090a277e-7e2c-4e68-b758-06e1682094e0,David Moore,david.moore@example.com,1972-01-31,633 Maple St,,Riverside,CA,,,
67fee0a6-2479-4bfb-afb5-91ff95552a2b,Emily Taylor,emily.taylor@example.com,1966-06-15,470 Elm St,,Georgetown,OH,,,
e0bfe8c4-1c9e-490b-85f3-8883906b87af,David Johnson,david.johnson@example.com,1963-07-14,420 Cedar St,,Greenville,NY,,,
51ea21ba-ad1c-475f-90fc-838b1f1a845c,Michael Miller,michael.miller@example.com,1972-03-08,540 Maple St,,Georgetown,NY,,,
ef8ecd15-e639-4d2c-bad7-cfa0f6e67ecd,James Johnson,james.johnson@example.com,1957-10-09,289 Spruce St,,Riverside,TX,,,f478bebf-852c-4d8b-9bdb-fa0a26774101
36d505dc-b86a-44b7-931b-6c471a4f47b9,Bob Miller,bob.miller@example.com,1950-10-03,353 Walnut St,,Madison,OH,,,dda2c56b-d1d4-4056-965d-84eb2186cf8c
6244b589-5b5b-4d7b-9d9a-0d2bd962e0df,James Doe,james.doe@example.com,1998-05-16,615 Oak St,,Fairview,PA,,,
0b3c0d24-3054-428a-ab0a-915dbfe1ff14,Sarah Miller,sarah.miller@example.com,1965-10-02,967 Pine St,,Fairview,IL,,,
81369da6-a2e4-4a29-9698-563883975f22,Jane Taylor,jane.taylor@example.com,1980-11-23,275 Elm St,,Fairview,NY,,,
3f0ab0a8-b80f-4561-9488-7b826965676a,Emily Smith,emily.smith@example.com,1996-09-05,124 Walnut St,,Madison,IL,,,bcf90c3a-85e1-4dac-bf32-855636600348
c56aa2da-23d4-43fd-ae7a-6157109338b7,Linda Johnson,linda.johnson@example.com,1971-04-06,667 Cedar St,,Riverside,TX,,,6b9308ab-f939-416e-9f5c-7ce26bce9a1d
9b35fb3a-3de6-413b-a956-a8966febeaa7,Sarah Williams,sarah.williams@example.com,1991-07-15,410 Birch St,,Salem,NY,,,d830f8e9-3a29-44df-b726-757540719e42
57f8c8ab-0d01-44fd-97fd-bba693bd399d,David Doe,david.doe@example.com,1984-03-01,201 Maple St,,Riverside,IL,,,92b6ec4d-5186-428d-95df-67d1a2759257
809b250d-4db9-4054-adcf-86046b774803,Sarah Williams,sarah.williams@example.com,1970-01-29,204 Elm St,,Springfield,IL,,,
6083d025-668b-489b-9925-3bf16e24d130,Michael Moore,michael.moore@example.com,1961-06-22,334 Elm St,,Madison,OH,,,54e4b0d3-e969-446a-a558-62d89c8d59e5
19a7483b-9e74-4c15-b2ac-fbe0acc969ae,Jane Davis,jane.davis@example.com,1956-12-28,566 Pine St,,Springfield,CA,,,
070997f3-d4c1-4e63-912b-f1fc805855bd,Sarah Williams,sarah.williams@example.com,1983-04-20,456 Walnut St,,Fairview,IL,,,989408db-68d9-48ce-bd5b-84be467566b4
f9eb7cfc-e4a0-4a09-b196-053c2ab67344,John Moore,john.moore@example.com,1992-06-30,726 Walnut St,,Madison,NY,,,
28c70721-93f9-4a99-a89f-1b6c9d098741,Emily Davis,emily.davis@example.com,1973-02-08,782 Walnut St,,Georgetown,TX,,,27f3758d-4038-47b5-95d4-01079351a461
d3abad12-3947-49b7-b3af-6c393af465fb,Linda Moore,linda.moore@example.com,1962-11-19,375 Birch St,,Georgetown,TX,,,fc6cb222-8765-490a-b714-658e3083254b
7263f07a-858a-419c-b5b0-c8ed733cd504,Alice Johnson,alice.johnson@example.com,1968-02-25,435 Cedar St,,Springfield,PA,,,
04fb6dc9-df68-4722-9671-579709446545,John Johnson,john.johnson@example.com,1965-03-16,501 Maple St,,Riverside,IL,,,
37b26aa8-a7ed-41d0-9cc3-0e02131203e5,David Taylor,david.taylor@example.com,1980-03-24,631 Walnut St,,Madison,FL,,,
c89433ff-f9d2-4a6a-97e6-af3013db2013,James Taylor,james.taylor@example.com,2000-08-26,484 Pine St,,Greenville,NY,,,
f0a0af08-81c2-4308-8e3c-84461f150b45,Sarah Wilson,sarah.wilson@example.com,1955-03-06,440 Spruce St,,Madison,IL,,,223b1a99-e473-402b-9de1-441ee7c9cb93
cd06769d-e930-473d-8691-b28d56d8f34b,John Smith,john.smith@example.com,1953-12-27,904 Oak St,,Madison,FL,,,
f82a23b6-8368-498a-9f7c-f9c2f695ea6d,Bob Taylor,bob.taylor@example.com,1996-12-28,822 Oak St,,Riverside,IL,,,423f086f-4677-430f-aa34-ef498a5cff2d
1b08a2a1-158b-4fb4-a513-ee1a68b6ec99,Michael Brown,michael.brown@example.com,2000-06-15,902 Elm St,,Greenville,TX,,,
00438d4a-7a25-4e09-a902-4b6eaefb4d3e,John Doe,john.doe@example.com,1971-08-05,921 Birch St,,Riverside,FL,,,
891efab5-c2dd-4450-8719-94d322172a09,Emily Moore,emily.moore@example.com,1977-12-11,444 Oak St,,Madison,OH,,,92c92c0a-2e56-424e-8386-99663bb2082e
70e124bf-467f-42f3-9c88-2623f6526ac9,David Wilson,david.wilson@example.com,1990-06-15,735 Spruce St,,Madison,TX,,,0c47df84-cdc8-4643-954c-3289c09a8f9f
ff1f2cda-6416-4291-9705-bdbff42e4a06,Linda Miller,linda.miller@example.com,1984-01-03,950 Walnut St,,Georgetown,CA,,,dd95658c-1df5-489e-bab3-9375c9b73d17
daee6e5c-4668-4358-bae8-b31a21878b1f,Bob Doe,bob.doe@example.com,1973-01-31,838 Pine St,,Salem,IL,,,
9a167e59-72b7-4fff-b3c6-9b77bb8eddc7,Emily Taylor,emily.taylor@example.com,1950-09-07,622 Birch St,,Riverside,OH,,,
c92be51b-4ad5-4a91-b8ea-3bdf8b448e53,Bob Doe,bob.doe@example.com,1952-05-11,436 Birch St,,Georgetown,TX,,,
6318357a-f989-4965-b845-2a7fccf7419f,Linda Johnson,linda.johnson@example.com,1978-05-26,909 Cedar St,,Georgetown,CA,,,
efb35f2b-044d-4588-8edb-b47f45518127,James Moore,james.moore@example.com,1967-11-26,514 Walnut St,,Greenville,TX,,,560e071f-4e6f-45fb-a338-3b4229a34a7c
d555c83a-e705-4556-8062-bcaa5f8aacd6,Jane Moore,jane.moore@example.com,1965-05-26,691 Birch St,,Salem,FL,,,fabdbcb4-c44f-4295-8ffc-1c712090b747
fe43d620-714e-4b46-81a4-1148f975c5cd,Emily Moore,emily.moore@example.com,1971-05-16,450 Elm St,,Greenville,PA,,,
0584d9ad-0b21-4da6-bc08-e1d80c8d5619,Alice Johnson,alice.johnson@example.com,1980-05-26,483 Spruce St,,Georgetown,FL,,,b69adad6-5905-47a6-b884-cce0019f48e9
d630191a-7468-48ad-b48c-177b0228a9e9,Michael Wilson,michael.wilson@example.com,1998-05-27,447 Spruce St,,Salem,NY,,,a397b283-4de9-4733-a02b-a53712d357a3
a1d48105-2729-48c0-a533-98669dd505cc,Sarah Williams,sarah.williams@example.com,1961-01-17,897 Maple St,,Fairview,OH,,,07b4bee9-379d-4c34-a40f-42e0c0fd69d7
e2baa282-9d9f-4457-a983-a090ac766a95,David Doe,david.doe@example.com,1960-12-01,661 Oak St,,Springfield,NY,,,6d5af184-816a-4362-bf88-87add64f91b6
a80ac359-8075-47c9-9314-7cf43c9562f4,James Miller,james.miller@example.com,2000-10-27,554 Birch St,,Greenville,OH,,,112499f5-abac-45a6-832e-46c3a9df27df
43946e9d-872a-43ec-ad52-3283166eb369,Alice Williams,alice.williams@example.com,1955-05-18,479 Spruce St,,Riverside,NY,,,87fbcda0-014a-4373-bccb-c0ecca602c11
064b91d0-e86f-4eab-8e7b-f3cede0f94ec,Emily Miller,emily.miller@example.com,1967-01-28,744 Spruce St,,Georgetown,OH,,,
a7e0556a-dde7-478c-a783-8a9e0674089f,David Williams,david.williams@example.com,1998-05-29,434 Oak St,,Springfield,FL,,,
4c386a36-4df1-47eb-b3ba-5f6f86828ec6,Emily Miller,emily.miller@example.com,1981-08-01,589 Oak St,,Fairview,NY,,,bb39598a-1d7d-4579-bb75-775c11ed8fee
492a63d3-a7d2-46fb-a1da-76ff842b0f51,Bob Williams,bob.williams@example.com,1962-08-28,719 Maple St,,Springfield,CA,,,
84268bdf-09a1-4c24-b421-b33f061305e2,James Davis,james.davis@example.com,1999-11-05,148 Maple St,,Madison,OH,,,
d371b293-cf75-402f-b727-f2642bb49508,Linda Smith,linda.smith@example.com,1978-09-25,350 Cedar St,,Georgetown,OH,,,708fbc5c-a33e-48dc-b5de-6e01c5964b5c
4ed381dd-e48a-4c9e-b8cb-e0aa7587a754,David Smith,david.smith@example.com,1980-07-28,181 Pine St,,Fairview,IL,,,
df7b0526-d1e6-49bd-937c-f21a5348081f,James Wilson,james.wilson@example.com,1990-11-20,480 Walnut St,,Greenville,NY,,,
d2cb8ce2-c85c-4077-bf70-3dd6ce7659e8,John Doe,john.doe@example.com,1978-10-16,619 Birch St,,Springfield,FL,,,a5801b79-01e1-440a-85d8-c16883a126ba
58b2e055-457f-4f9f-bac0-825ce1532d87,Sarah Williams,sarah.williams@example.com,1971-05-02,778 Cedar St,,Springfield,TX,,,
e34244a0-fde8-4393-af4f-35ec76570390,Alice Williams,alice.williams@example.com,1990-05-06,761 Oak St,,Greenville,NY,,,
43e597b0-4b3b-4370-8ec1-e27ffa875b8c,Bob Miller,bob.miller@example.com,1971-05-11,776 Birch St,,Fairview,TX,,,747b3636-faea-4e8b-9f05-160365f29192
f08ab0f3-8b03-49f9-8f7b-8ffe5cd4c159,John Williams,john.williams@example.com,1954-11-24,974 Birch St,,Madison,TX,,,
c7d40ea3-3dc6-475f-8e73-68136982cf98,Michael Brown,michael.brown@example.com,2000-05-06,271 Maple St,,Salem,CA,,,
c5b7e600-b55e-4158-93cd-7160f0843183,Alice Brown,alice.brown@example.com,1973-11-01,353 Elm St,,Madison,OH,,,e18d6b6b-eb42-47bb-8c83-de0b57df1a32
d0d0ac71-2a2f-47eb-a936-ef3425820fbf,Linda Doe,linda.doe@example.com,1971-09-02,414 Elm St,,Riverside,CA,,,
c69b77f0-a06a-4bd1-b0ee-dac11beaafad,Alice Miller,alice.miller@example.com,1975-04-21,432 Elm St,,Salem,CA,,,120374a2-9248-4bff-b5c0-fedf38293c82
f4bd7d78-afbb-47e7-b316-313a1df83f03,Bob Moore,bob.moore@example.com,1980-06-15,360 Elm St,,Riverside,TX,,,
9fbeb901-ff5b-4f67-9682-28cba123a91c,Sarah Doe,sarah.doe@example.com,2000-10-31,627 Pine St,,Greenville,PA,,,8c278f9a-950f-4eeb-8e09-45a444948f88
1830bafb-70a1-4e65-96a6-a1a658be6b8d,John Moore,john.moore@example.com,1967-04-06,625 Oak St,,Madison,FL,,,d6ff819a-2ebe-4fbd-a63a-676fcd1fef04
60fab001-893a-40e6-be98-1ab23075ac3c,Jane Johnson,jane.johnson@example.com,1978-08-31,589 Pine St,,Salem,NY,,,
5014e9fe-6471-4408-bbab-696a7c6585ba,Bob Johnson,bob.johnson@example.com,1984-06-09,953 Cedar St,,Greenville,CA,,,
770d693d-228b-4636-a4a3-6d74422ddb25,Jane Smith,jane.smith@example.com,1991-02-06,850 Elm St,,Madison,OH,,,
02fa280c-88a5-4b87-a6a7-c076ad66dd1d,Jane Davis,jane.davis@example.com,1989-04-25,152 Elm St,,Greenville,PA,,,
e10b1115-fe20-4328-8a5d-18e7599cd4aa,Sarah Doe,sarah.doe@example.com,1995-03-27,219 Birch St,,Georgetown,NY,,,
e4c7499d-0846-4b82-b6a6-aad2df568ba7,Linda Moore,linda.moore@example.com,1984-06-01,378 Birch St,,Springfield,NY,,,16e09172-a81c-4eaa-9f68-f88884679045
3fd137a3-5907-4bc6-b8d8-b30aeaee69d3,David Doe,david.doe@example.com,1967-10-11,795 Spruce St,,Riverside,IL,,,
490aa691-0008-4dfc-9d87-f27902c6c0cc,Jane Moore,jane.moore@example.com,1998-02-05,895 Pine St,,Fairview,FL,,,
b506850c-ed52-410a-b036-6e7315537b9d,Linda Moore,linda.moore@example.com,1957-02-09,709 Oak St,,Greenville,PA,,,
eeb145ac-4238-4e5c-87cb-18fd40334911,Bob Miller,bob.miller@example.com,1979-10-27,406 Maple St,,Greenville,FL,,,
4f8ba1c4-58e1-4ca3-92a0-f997b929022a,Sarah Williams,sarah.williams@example.com,1970-05-27,210 Oak St,,Springfield,TX,,,7f642346-b6be-4ca4-a123-1ef6635b133b
61b6fe32-d683-45a5-8b3e-535a7e8b2194,David Taylor,david.taylor@example.com,1953-09-03,232 Pine St,,Madison,TX,,,
f6c7f0f8-f780-4b7e-92db-006a8ab27d47,David Taylor,david.taylor@example.com,1969-08-17,808 Walnut St,,Springfield,CA,,,
0e798a5e-7fe8-4839-8912-a6ac0337e106,Alice Williams,alice.williams@example.com,1993-05-09,447 Birch St,,Riverside,CA,,,8caa859b-138f-4369-b32b-0731c3f85919
4b181c60-e84d-4a69-bd0a-16c284454857,Jane Moore,jane.moore@example.com,1990-03-10,125 Cedar St,,Salem,PA,,,d7b40b51-7850-4cbf-821f-8db823328f01
8875baff-2683-44dd-8709-eac3af0cf5f3,Jane Moore,jane.moore@example.com,1961-01-20,588 Birch St,,Fairview,TX,,,7080e9ec-a29b-493a-8d64-35fad2ac0610
55ceef48-aef5-481a-bfec-983285f6ff34,John Smith,john.smith@example.com,1994-07-17,927 Cedar St,,Fairview,IL,,,0940ce4d-d57b-480c-b0cf-0924115ed408
b60129cf-fea9-4570-bc9f-22c964a0aae7,Bob Doe,bob.doe@example.com,1993-12-12,895 Birch St,,Georgetown,IL,,,
d45213b3-7ee4-43f6-98a4-853e9e2d5d4a,James Taylor,james.taylor@example.com,1963-11-25,347 Maple St,,Greenville,IL,,,
f993472c-088e-4f70-ab85-be5a30596bfd,Emily Doe,emily.doe@example.com,1962-04-12,431 Walnut St,,Springfield,IL,,,888e2d52-b7dc-461e-b70e-ac30ebd9903a
d391ebf1-68de-4cf7-83d3-69002e79d65b,John Davis,john.davis@example.com,1970-03-08,781 Cedar St,,Salem,PA,,,528cdbff-0572-4b7a-af63-2d40222a887f
6a816f7d-8d53-4fe4-9955-64a742dc5b34,Bob Williams,bob.williams@example.com,1982-02-14,924 Pine St,,Springfield,TX,,,
c3db0ba8-933c-4159-bad5-8aba47d25d33,David Brown,david.brown@example.com,1976-04-05,520 Birch St,,Salem,FL,,,03980a24-1cf5-4079-b5b1-0bd587646608
34261a56-2f7b-4b5f-bd42-22848e96c58b,Bob Johnson,bob.johnson@example.com,1979-12-17,417 Walnut St,,Riverside,PA,,,25a0eef3-7e84-472c-85e0-db5ece95de51
73c78d42-b28b-49cf-a1db-dd53b4e39b20,David Miller,david.miller@example.com,1961-08-07,386 Walnut St,,Springfield,PA,,,d44a9485-0eaf-43ca-8cab-a955a9f9cb45
767663a6-d1d0-4997-a26e-c3a885b61cbb,Bob Smith,bob.smith@example.com,1983-01-15,566 Maple St,,Greenville,NY,,,
5145b223-742f-41c9-9f4d-a1e848fe030b,Alice Johnson,alice.johnson@example.com,1951-10-02,555 Maple St,,Georgetown,FL,,,
f228a520-5c96-4b00-aa12-9e470a41b20d,Alice Moore,alice.moore@example.com,1980-11-26,420 Walnut St,,Greenville,OH,,,
2a050eb7-cd62-40fd-b528-c2c1d859e9fc,Linda Taylor,linda.taylor@example.com,1956-02-25,592 Spruce St,,Riverside,CA,,,
743fa3e7-a980-4bae-86af-b5be340fe6ae,Bob Williams,bob.williams@example.com,1974-07-01,316 Birch St,,Riverside,TX,,,74ab6923-a68d-4154-8e86-58d390934c03
833e6fe2-041c-43e8-8e3b-0dc0b3085a40,James Taylor,james.taylor@example.com,1982-08-25,444 Spruce St,,Riverside,PA,,,22a71cd7-3fb2-4bff-8a47-2ff04ad14ad2
c5998a28-2551-4534-9b13-72cbfa218ceb,Jane Miller,jane.miller@example.com,1992-10-12,359 Birch St,,Madison,IL,,,23164ad3-c257-4d3e-868e-ada20b3107ae
7621baba-bacd-4394-99c6-a17a96500867,James Smith,james.smith@example.com,1967-12-19,394 Elm St,,Madison,PA,,,
5fd92987-e898-4662-85cb-576b1739be88,Alice Brown,alice.brown@example.com,1971-08-15,934 Birch St,,Fairview,CA,,,657394d6-7019-4b97-a84e-3b5e1098cc5b
c55dd017-78f3-4f15-b289-86fc53d3e29b,David Brown,david.brown@example.com,1963-08-25,242 Spruce St,,Fairview,CA,,,f4e24204-40e0-4ea1-b40b-0f09cee3dc88
6378921f-da7f-40fe-aaf9-a35d76c0d5b5,David Wilson,david.wilson@example.com,1983-08-01,857 Maple St,,Riverside,TX,,,5b2bf216-ba5e-49c1-bd6e-4ebe5e5e9c62
5adfb2c9-b01a-4b6d-af61-01349b6e10ca,Sarah Wilson,sarah.wilson@example.com,1959-11-05,164 Oak St,,Fairview,IL,,,
a7a33c4d-7a02-4adc-ba04-d4efaf21dc1b,Bob Davis,bob.davis@example.com,1992-08-29,638 Elm St,,Riverside,CA,,,dbb69453-1ea3-4921-9722-a24e0a7e8151
ce8003de-b75a-4001-b430-889d4c037c20,Alice Moore,alice.moore@example.com,1989-03-01,350 Pine St,,Madison,OH,,,
8fb5a154-f1b4-4c3e-9b6f-b7b63c4f8239,Emily Williams,emily.williams@example.com,1987-01-29,644 Elm St,,Georgetown,NY,,,e8951b93-dbd2-4fc4-988a-1ff583e5b4fa
46ee3583-8061-434f-afb1-9e33cd0a2f62,David Williams,david.williams@example.com,1967-08-31,780 Cedar St,,Salem,NY,,,e6b36c9e-1ffd-4da1-b038-2a5609dd693c
265ecffb-3628-4567-ab68-e5f7c8384255,Michael Brown,michael.brown@example.com,1956-07-24,183 Cedar St,,Madison,IL,,,
04eeba11-a9d0-45b2-a17f-c1d421af70c4,John Smith,john.smith@example.com,1957-02-08,283 Cedar St,,Greenville,TX,,,
4a53d50f-91e8-4dd1-b29d-a7a706676748,Bob Johnson,bob.johnson@example.com,1995-05-29,660 Cedar St,,Madison,NY,,,36e72726-b40c-4baa-8dc0-dd9628000551
9f1855e2-86f0-45a3-a4b8-90a4aea036ae,Jane Davis,jane.davis@example.com,1966-10-18,804 Oak St,,Salem,NY,,,4e9a1fe4-88b1-4636-861c-012c85c3e0a2
ffaae419-305f-49ef-abc4-b0e2612c4d51,John Smith,john.smith@example.com,1988-09-22,219 Spruce St,,Georgetown,CA,,,
d08168f7-265f-44fd-aba0-4eaad750cce1,Bob Doe,bob.doe@example.com,1953-04-18,412 Oak St,,Madison,NY,,,d31daa91-1b71-4362-9c4d-f0b29682ece4
01bc2263-81f8-4262-bd29-a2fa0eac2509,Sarah Moore,sarah.moore@example.com,1952-09-10,159 Elm St,,Riverside,TX,,,
f64ba742-ca16-44c7-a31e-248fe3d28be5,Alice Wilson,alice.wilson@example.com,1964-05-17,556 Cedar St,,Madison,OH,,,fbd8e614-fdbf-4432-9e89-9b325c758afe
0c6452f2-2aa0-4e4d-87b8-77eb4fd6037e,Michael Smith,michael.smith@example.com,1990-04-15,599 Maple St,,Springfield,TX,,,3cb1e8d1-f66b-49e2-bf4d-0c29c7e2a130
0521be0b-4ec8-49ac-bfb8-8d2682810434,Linda Johnson,linda.johnson@example.com,1983-07-07,187 Spruce St,,Riverside,CA,,,edc87e5e-9f6e-4e1f-9da7-259e01f009d2
4d9e1354-53c4-43a2-8d9b-75a2c78b8241,James Taylor,james.taylor@example.com,1968-08-24,126 Cedar St,,Salem,NY,,,
ea66829e-a35c-4eb4-a8a1-27dd631001f9,Bob Taylor,bob.taylor@example.com,1962-10-14,869 Birch St,,Riverside,IL,,,7f919ff3-8791-4d51-83e6-73e46f3b7f64
a92f85df-f0c3-4cb6-a7ce-84a1365ad879,Sarah Williams,sarah.williams@example.com,1994-04-21,916 Walnut St,,Greenville,CA,,,9e2c77d3-23c6-4933-92fe-f0a3816ea431
8d2e543b-ecb9-489b-bd43-7dc12024aac0,David Johnson,david.johnson@example.com,1972-04-30,704 Elm St,,Springfield,PA,,,
4a49e7fe-b5a0-4489-9872-687e89fe5e4b,David Moore,david.moore@example.com,1984-10-28,569 Birch St,,Fairview,PA,,,fd7765e6-0448-4cae-9bdc-1552d858d3db
18552d6d-d759-4f55-b3c9-f417994c421a,James Wilson,james.wilson@example.com,1993-09-03,483 Oak St,,Fairview,TX,,,c77370da-f706-4031-8a3e-927673b2d889
f54de7bd-f17e-4097-9d1c-1a1821a1387f,Bob Davis,bob.davis@example.com,1962-07-30,937 Maple St,,Riverside,PA,,,ef0f0edd-2a59-4f56-9a20-ae9a4db13b6d
0dfe96d6-cd08-42da-9e30-d89d53d0653b,Sarah Brown,sarah.brown@example.com,1987-10-13,467 Maple St,,Georgetown,TX,,,f2797287-282a-4399-8027-9ea023233cf7
9ccdf032-4375-4af5-a8c8-0009c0f7a91f,Bob Brown,bob.brown@example.com,1964-06-23,626 Oak St,,Salem,FL,,,5d08182d-cbf5-49a0-bd03-a072d5cb333b
c40b98e5-a7d8-4112-87bd-0cf46731a034,John Doe,john.doe@example.com,1984-03-15,103 Maple St,,Fairview,CA,,,9393435e-4802-481c-94a5-6605fc9d5ad3
6a10a871-0e58-4413-97d2-e6a05e7f3a63,John Johnson,john.johnson@example.com,1963-05-18,970 Walnut St,,Riverside,NY,,,519b90a1-e2bf-4b35-8dac-29123365bfb8
6474909c-67b1-4a34-804d-c5d6a8b30711,Alice Smith,alice.smith@example.com,1976-03-26,493 Oak St,,Salem,OH,,,be2c1b15-6449-44b0-af5e-d77374560c2a
3eb7a245-4c46-4af4-9e43-7a3a61c2d737,Linda Wilson,linda.wilson@example.com,1977-11-12,545 Walnut St,,Riverside,TX,,,
a5d3e3cc-63ec-4c4e-88e0-341287bf1097,Sarah Davis,sarah.davis@example.com,1963-01-04,213 Birch St,,Greenville,FL,,,47f59fd8-922c-42ee-9440-7a6cc02f8591
8627fa51-5808-42e3-88fd-ed6490ddd20d,Michael Smith,michael.smith@example.com,1993-03-21,459 Oak St,,Georgetown,TX,,,524da440-8904-48bc-adbd-36c498341162
977d4bb5-b774-4e50-989b-fecc3fe223cc,John Taylor,john.taylor@example.com,1987-04-14,147 Pine St,,Greenville,TX,,,
cd0f4c99-6da3-4791-96ec-7c6d469935d3,Emily Smith,emily.smith@example.com,1984-11-11,573 Elm St,,Greenville,CA,,,15f53359-1ff3-4f09-9b34-f72b0d96a151
58b4d88f-aefd-496c-bda0-6998d0016c73,John Smith,john.smith@example.com,1989-02-07,888 Cedar St,,Greenville,FL,,,af62d134-70c7-4da8-b8bd-12a7fdf56970
2bf3cecb-d163-474b-a5ca-b0017edf0efd,David Miller,david.miller@example.com,1974-10-02,598 Cedar St,,Georgetown,FL,,,d0f5097b-988d-42d8-a762-f86d696e317f
e218c71c-9766-458d-a7b5-8d47d853f783,Sarah Brown,sarah.brown@example.com,1980-10-13,673 Oak St,,Fairview,IL,,,49635193-8a30-4395-9380-46450bbcba3b
7edce217-d3ee-4452-8501-7c553bbaab33,Michael Doe,michael.doe@example.com,1995-11-11,181 Spruce St,,Riverside,TX,,,c5e4bae1-66eb-4fdb-ad5b-12b86e297050
d7ec9390-692c-48e4-994b-47ad3dd506fa,James Brown,james.brown@example.com,1967-09-20,797 Maple St,,Riverside,IL,,,e597e5f6-bfd2-404d-b527-18e1c7af2096
df52c8c2-5d24-4888-a1db-a2e01715be92,John Smith,john.smith@example.com,1983-01-18,419 Elm St,,Fairview,FL,,,357f4cd3-d5e6-430f-b7e9-b6ad6e865e72
63e89f9e-25ee-4495-978e-01411059bf74,Linda Doe,linda.doe@example.com,1999-06-05,354 Cedar St,,Georgetown,IL,,,
2f9a5317-106c-4760-b00d-b0b442b53feb,David Wilson,david.wilson@example.com,1956-11-13,648 Walnut St,,Springfield,NY,,,
04152819-489b-4cf1-b3e5-bfcd3747f700,Michael Wilson,michael.wilson@example.com,1977-10-14,966 Birch St,,Greenville,FL,,,
18be3197-f568-4489-bcf3-efe3bcd0e3a1,James Brown,james.brown@example.com,1977-12-24,886 Birch St,,Salem,FL,,,8450b2dd-0115-42e8-94d4-4aefb70958ed
7e0a2528-c4c3-4c61-9c61-b8dd49a939fd,James Davis,james.davis@example.com,1972-07-29,342 Spruce St,,Madison,PA,,,142b55ae-549f-412c-8c1c-22828707520f
9122b7b1-a5de-4a46-ac5d-70de3d6fa4f2,James Johnson,james.johnson@example.com,1954-03-08,778 Oak St,,Madison,OH,,,
c7d90800-7108-44b7-8f92-b8dc71b0598b,John Miller,john.miller@example.com,1989-10-09,937 Cedar St,,Greenville,PA,,,
22dfbd5e-1c39-47c9-ba50-d0d128900114,John Davis,john.davis@example.com,1963-08-19,116 Spruce St,,Greenville,PA,,,
7a6136f7-2983-452c-bff7-26d903d049a6,Sarah Johnson,sarah.johnson@example.com,1982-08-04,549 Oak St,,Salem,PA,,,5840c26c-857e-4f7d-9abf-2fa25f4fe015
e5b58be5-29d0-4eb3-80b1-47e7d87960ee,John Smith,john.smith@example.com,1992-12-10,751 Walnut St,,Fairview,OH,,,cae5fb47-0af9-468e-a43e-3f4d5b1b0fc8
8aa2765d-dbf6-4cf7-8cf1-8b8cb5395844,Alice Johnson,alice.johnson@example.com,1959-11-10,831 Elm St,,Springfield,OH,,,95cdedde-d8ea-447f-bc06-b10600c6aa18
ede0d701-dcb5-42a5-b143-1c6e17c6a868,Michael Taylor,michael.taylor@example.com,1974-07-12,363 Elm St,,Springfield,TX,,,
f7f90a54-01fa-4870-b7b4-f408452fed8e,Linda Williams,linda.williams@example.com,2000-01-28,338 Elm St,,Greenville,NY,,,68666980-2250-44e8-812f-5f2d69511bb1
786ed008-fc42-48db-af8c-3696e60d20ef,Michael Moore,michael.moore@example.com,1960-05-19,507 Elm St,,Riverside,NY,,,69c5b296-e41e-4899-b9c0-dede4891cc1f
9c8c588b-ebc5-4b3c-ad6c-192ef7a7e9dc,Michael Doe,michael.doe@example.com,1973-08-17,328 Oak St,,Georgetown,CA,,,4351d4cb-7135-4943-90cc-30213b20499d
89da6fe4-6bf8-4e4a-bca5-2e1ce90e687f,Bob Smith,bob.smith@example.com,1994-11-20,353 Maple St,,Madison,IL,,,
d7b01df1-7167-415a-91be-e22dc571646a,Sarah Taylor,sarah.taylor@example.com,1968-08-28,868 Oak St,,Madison,OH,,,
3ac972a2-2922-4812-be9e-cb883efd18f3,Linda Williams,linda.williams@example.com,1972-09-06,525 Birch St,,Riverside,NY,,,9f44972a-0493-4c16-8a5d-d237c3a83485
5f651eb4-509b-42ce-9e8f-b0ea093e412d,Emily Brown,emily.brown@example.com,1997-03-27,782 Maple St,,Madison,NY,,,
529efb4a-e452-48f9-8f2b-09f29ed85460,Alice Wilson,alice.wilson@example.com,1992-09-22,808 Elm St,,Springfield,OH,,,
c21f7695-4a03-4f56-bd92-e6dc7ff82fa3,Emily Davis,emily.davis@example.com,1964-10-06,371 Spruce St,,Georgetown,CA,,,
1690d5b7-c8fb-4fed-b3e7-f6bf58e44c51,Michael Moore,michael.moore@example.com,1956-09-25,277 Cedar St,,Fairview,FL,,,
d947cfec-8ddf-4c17-8c17-2335193202c0,Linda Davis,linda.davis@example.com,1963-10-05,658 Walnut St,,Riverside,NY,,,eaa4f8d7-83e1-49ca-ab9a-9a75d1ada24c
53d6b9d3-1a7c-424d-a634-adcbae5a8940,David Davis,david.davis@example.com,1960-04-08,149 Maple St,,Greenville,TX,,,
183237d1-51ca-4ca6-a528-f2a2a9e7f257,James Davis,james.davis@example.com,1951-08-20,860 Birch St,,Salem,PA,,,4622787b-2a6b-4cbb-aee8-20d1843bb451
2e02a827-f78c-4c92-a45b-b67bbd3e1542,Michael Johnson,michael.johnson@example.com,1985-06-09,101 Cedar St,,Georgetown,TX,,,
54cce202-b336-4c6c-b47f-ec249cf0309c,Emily Smith,emily.smith@example.com,1955-09-11,128 Maple St,,Salem,OH,,,3683583b-816e-4511-8788-8b8adbb2d34f
b1d23c79-586e-4d10-92e8-2fa4ac2a28c4,Michael Miller,michael.miller@example.com,1954-09-29,528 Elm St,,Georgetown,FL,,,
dadaed69-db1f-43de-90d7-9e55fca5ed92,Michael Wilson,michael.wilson@example.com,1981-06-06,214 Walnut St,,Salem,OH,,,
7d1f6687-533c-4b40-8c4a-63733de1c47a,Alice Moore,alice.moore@example.com,1958-01-05,709 Spruce St,,Madison,CA,,,ca856ca7-5bdd-4ff9-bce9-a11ddef06544
0d996787-556c-4f3b-a76a-97eff3970e63,James Taylor,james.taylor@example.com,2000-05-04,280 Pine St,,Greenville,FL,,,2e8eee7b-f9f9-4939-8eb3-bbe556082312
1806d5db-ef66-411b-b81f-384351b97dba,Alice Brown,alice.brown@example.com,1998-05-27,337 Maple St,,Georgetown,PA,,,
eb12b9e5-65b0-4bc5-be9d-be0b6702f8a0,Michael Brown,michael.brown@example.com,1966-06-13,265 Maple St,,Madison,FL,,,ee3edfef-2bf0-405b-8c6e-e8a637927498
e59f4509-a46a-48da-a75e-eda86b899d85,James Doe,james.doe@example.com,1974-03-30,291 Birch St,,Greenville,PA,,,6f6e8121-b4ff-4e79-912a-d66fbc783a08
6efa90d1-2b5f-4a5b-9369-74c7f725430a,David Moore,david.moore@example.com,1993-11-09,528 Pine St,,Madison,TX,,,9f962ede-3470-4cb9-a7b3-36c6be36548a
6010cb8d-4b58-4dfa-9810-8c99041fbea9,James Taylor,james.taylor@example.com,1951-10-02,381 Elm St,,Fairview,PA,,,aa6dc30d-178d-4480-961f-c121c67df20f
3e4e561a-b7c3-4ca2-a63e-82cae81f8a6e,Alice Johnson,alice.johnson@example.com,1956-04-11,860 Maple St,,Springfield,IL,,,de74526e-8291-4fbe-b1cc-58783872002e
cb05e4b7-c79c-48b4-8895-69fb6136f3ce,Linda Williams,linda.williams@example.com,1950-07-03,406 Spruce St,,Salem,PA,,,2e79b432-fe36-4720-bc07-ebec257f82e2
ee28ce65-0e33-4d21-9ef5-831055f8bffa,Michael Johnson,michael.johnson@example.com,1962-11-07,931 Elm St,,Springfield,PA,,,
c05e4a54-1a5a-4d89-b2cb-c58d37d9b171,Jane Smith,jane.smith@example.com,1981-11-19,707 Oak St,,Fairview,NY,,,82a16ec1-3ded-413c-bb01-83cd9117fe26
a4ad519c-1106-4213-bc31-3713b8650af4,Emily Wilson,emily.wilson@example.com,1967-02-07,949 Maple St,,Fairview,CA,,,364afba0-f7da-4060-9f3f-9798427fef77
fef746b9-c93e-484d-a9c7-9c750d81fdb9,Emily Miller,emily.miller@example.com,1964-08-09,897 Elm St,,Fairview,CA,,,20d06bee-2c51-4ec5-b16d-234696d04d38
9a2ef3d1-ce61-401c-b166-8483bcb41da5,Linda Williams,linda.williams@example.com,1974-06-14,800 Pine St,,Salem,CA,,,8bbb1336-906f-4fe6-b463-2a95d00f1f76
cafbbf92-ec91-4968-97d4-f77433d4d441,Michael Doe,michael.doe@example.com,1980-08-29,147 Pine St,,Fairview,IL,,,
bfde7171-b50a-4a3d-92ac-52ab305072f3,Emily Smith,emily.smith@example.com,1966-05-13,910 Spruce St,,Fairview,PA,,,
1f20fae4-c5e7-47dc-9757-e1d29618fad1,Linda Doe,linda.doe@example.com,1965-09-18,852 Maple St,,Georgetown,NY,,,
801a60e3-afd0-483d-b403-df6c03b7fba2,Sarah Miller,sarah.miller@example.com,1951-03-27,393 Maple St,,Georgetown,OH,,,
99295a79-5ab5-4b0d-9932-db8ad8f5bfe6,David Williams,david.williams@example.com,1994-09-22,226 Elm St,,Springfield,PA,,,
6e53fdc7-0004-4226-a633-54cb3536d837,Linda Johnson,linda.johnson@example.com,1998-04-07,902 Pine St,,Madison,PA,,,
e66a41a4-77e6-4f44-8b8c-c6390a0bc7c0,Sarah Williams,sarah.williams@example.com,1951-12-30,968 Cedar St,,Salem,CA,,,6c2c3aed-3509-4853-81f7-441e217e7ae9
1cbe921b-b1d0-4737-a599-e4390344bc96,David Wilson,david.wilson@example.com,1962-04-10,907 Oak St,,Springfield,TX,,,
c1afca59-9c35-49ca-a876-2022c46e784e,Bob Miller,bob.miller@example.com,1964-06-25,380 Pine St,,Riverside,CA,,,
46768917-79bf-4732-a44a-52350dee8361,Bob Doe,bob.doe@example.com,1985-05-11,640 Pine St,,Madison,PA,,,c5f27ea1-1678-4af8-8eac-10e38506d88a
cbec12fb-23f4-424f-b73a-677762dda855,Bob Johnson,bob.johnson@example.com,1953-02-25,394 Spruce St,,Greenville,NY,,,
448befc4-3f94-4a18-b82d-dc5e1002330c,John Moore,john.moore@example.com,1982-08-22,921 Maple St,,Salem,FL,,,
43e22dec-b43c-46b7-a1eb-1e05495dda31,Michael Brown,michael.brown@example.com,1962-01-16,944 Maple St,,Salem,IL,,,724ff2e2-7a81-4419-a462-c5908fd6a9f6
3b678158-72a3-4ffc-bb1d-a16d71187888,Jane Moore,jane.moore@example.com,1963-05-03,777 Walnut St,,Fairview,TX,,,2c651b94-5569-4e01-8fa7-36ecf09a61f8
015d6c43-5778-4cb6-81d2-301f4f8d789d,Alice Doe,alice.doe@example.com,1989-12-18,910 Birch St,,Springfield,IL,,,5d3bd860-a1cd-4250-a600-e83ce32b8419
9277cdc7-6e78-4ade-878d-3a23d0e7c113,Alice Doe,alice.doe@example.com,1975-04-20,259 Oak St,,Salem,PA,,,
c8a03678-a58a-4871-ba0a-468585a03fef,John Brown,john.brown@example.com,1954-09-22,899 Pine St,,Madison,OH,,,
a00edb3a-b4d6-442c-a908-5d9875b14e36,Alice Davis,alice.davis@example.com,1968-01-04,703 Walnut St,,Greenville,PA,,,f1b76215-fb98-4b74-8516-6679da660a5f
741160d5-804c-41ba-b1bc-39b6135697f2,Linda Wilson,linda.wilson@example.com,1951-05-15,423 Pine St,,Riverside,IL,,,
aa12f1a0-f576-4aea-8ad9-08a3d5ddfccb,Emily Moore,emily.moore@example.com,1967-12-31,890 Maple St,,Springfield,OH,,,9631c9df-e3ea-41de-b37b-e73bd892b4e5
13a7a758-9c8e-4e23-9892-88946000e2b5,James Johnson,james.johnson@example.com,1979-11-28,522 Cedar St,,Greenville,CA,,,
cb1be4a2-777c-4484-9e8a-03f5e5b67aa7,Sarah Smith,sarah.smith@example.com,1968-11-29,362 Walnut St,,Fairview,PA,,,
4e1393ca-fd73-4592-b6dd-f1be5bc29256,Michael Wilson,michael.wilson@example.com,1977-11-27,157 Walnut St,,Madison,PA,,,b8c21142-d917-416d-9fbf-f1d098c62afb
3d0adb10-fe23-45a5-9122-baac13eee2a2,James Davis,james.davis@example.com,1957-09-22,330 Birch St,,Greenville,PA,,,
16086e36-be1b-4840-8e30-c4387460927c,Emily Miller,emily.miller@example.com,1999-12-26,701 Elm St,,Riverside,IL,,,
1333053d-8d17-4642-b73a-95de90333c7f,Michael Smith,michael.smith@example.com,1979-03-30,940 Oak St,,Greenville,PA,,,21359261-fea9-4607-98e6-cb35e143b427
1149e612-5f67-41ee-97f8-e9bd78e2b31d,Bob Taylor,bob.taylor@example.com,1975-09-21,943 Pine St,,Georgetown,NY,,,04a6d03f-4895-47b7-a0e0-98abed8de8f2
4a8ab838-82f8-45e2-8109-978b8f4fafcf,Jane Moore,jane.moore@example.com,1994-06-05,291 Elm St,,Salem,FL,,,
c2b2f06d-6330-49f6-9cd2-1f2cad441a07,Alice Taylor,alice.taylor@example.com,1993-10-17,989 Elm St,,Fairview,FL,,,
a7e73fc8-361f-4019-97ee-0a18278ca499,Michael Brown,michael.brown@example.com,1969-06-30,174 Elm St,,Georgetown,OH,,,
1566b618-7c2f-429b-9737-fff613e763b7,Bob Doe,bob.doe@example.com,1989-03-13,414 Walnut St,,Riverside,IL,,,d6ecaf4f-1f18-44d5-a6f2-6f886f7aa637
5a18cede-d13d-470a-b9e8-227cbe8c3129,David Miller,david.miller@example.com,1954-04-05,824 Maple St,,Georgetown,FL,,,82238b5d-28ab-428a-8c12-fee972bc2b3d
71997fa2-5ce9-4925-a8d3-a85361049906,John Brown,john.brown@example.com,1996-08-10,223 Walnut St,,Springfield,CA,,,
6f4bef7c-692d-4b24-aec1-32164f04399d,David Davis,david.davis@example.com,1985-10-14,281 Maple St,,Greenville,PA,,,eb0eb931-86f7-4456-b004-edbe837b6d7a
6a2cfe13-4b71-415d-aa4f-4c6766959868,Bob Miller,bob.miller@example.com,1985-02-11,249 Walnut St,,Madison,FL,,,
642992bd-5947-44eb-9465-9593baf53f78,Sarah Smith,sarah.smith@example.com,1965-09-24,241 Walnut St,,Greenville,FL,,,
382884e3-8eb1-478b-af20-a1c4ce571a92,Michael Moore,michael.moore@example.com,1972-05-01,586 Spruce St,,Salem,OH,,,96f4e145-e915-4acb-b04e-6f5054ee336f
084a5357-c538-4864-b9e6-5d503f086174,Sarah Miller,sarah.miller@example.com,1957-07-26,647 Maple St,,Greenville,OH,,,b1f008bb-39a4-41f6-853c-66fe87338421
de19fc2a-822b-4159-a624-416ed53c7f98,James Doe,james.doe@example.com,1973-09-01,702 Walnut St,,Georgetown,TX,,,25ee736e-9aa2-45d3-9edc-b5809fe0d806
55b9d172-1ac9-40a8-9cf1-423c9239efe8,Sarah Moore,sarah.moore@example.com,1961-02-21,792 Spruce St,,Springfield,IL,,,c2fef924-fc21-4109-8668-bf0d1dc8256a
f67a13e7-e269-4822-bb3f-e94a67071c3f,Alice Davis,alice.davis@example.com,1972-04-21,120 Maple St,,Salem,NY,,,
a7400810-1fca-4115-ac29-567bcaa117fe,Sarah Davis,sarah.davis@example.com,1977-09-28,996 Walnut St,,Riverside,FL,,,afc450be-267a-4a5e-8254-9d44fdb8de16
744ed546-f871-4127-8e2a-dadcf096a07a,David Moore,david.moore@example.com,1954-12-20,933 Spruce St,,Madison,TX,,,
afdb8ef1-8d2c-4724-a593-ab2e75d4a7d9,Sarah Taylor,sarah.taylor@example.com,1997-02-03,715 Maple St,,Greenville,NY,,,116f7a95-f567-4a4f-b170-ab4456cc720c
2ec5b0f4-3af8-4c7f-9e51-81a1af5464f8,Jane Brown,jane.brown@example.com,1973-04-07,429 Pine St,,Georgetown,TX,,,
9acf501b-8f41-4dff-b837-58b2df9fab3c,James Williams,james.williams@example.com,1963-06-01,937 Pine St,,Fairview,PA,,,f656e10d-de87-406d-8d25-3b7cbdecd2a3
fd50fb40-7314-41b9-9e3a-9572dd3fd8b2,Michael Brown,michael.brown@example.com,1974-08-03,800 Elm St,,Madison,PA,,,a77523b9-feca-4a53-9ca6-cb8bd22be03e
0a450b5c-e94f-42b7-aa17-38a3d42149a3,Emily Davis,emily.davis@example.com,1985-10-03,653 Birch St,,Greenville,CA,,,
fc759190-3256-44e5-b4f3-370c6411f9ff,Bob Doe,bob.doe@example.com,1989-05-21,383 Birch St,,Fairview,OH,,,
18125bfb-9e43-4ddb-bad5-4d6e0caca893,John Wilson,john.wilson@example.com,1959-04-28,195 Elm St,,Greenville,IL,,,256e68e0-96e1-41bb-a1f2-2263d9b4d52b
05d18c28-2e75-494b-a56d-863bf8ef0801,Michael Taylor,michael.taylor@example.com,1955-01-16,449 Pine St,,Fairview,PA,,,0ceaa394-1b08-4614-b75a-c136d8e30488
2724a50a-5c04-4d41-80b5-b122a46637fc,Michael Doe,michael.doe@example.com,1992-06-27,637 Walnut St,,Madison,PA,,,
2c069056-0e6e-4b40-96e1-237f6de8b365,Jane Moore,jane.moore@example.com,1994-08-21,344 Cedar St,,Fairview,OH,,,
9c475415-8c93-4040-8f97-3b090fdbcf5b,Jane Smith,jane.smith@example.com,1950-11-21,466 Maple St,,Fairview,NY,,,
66f9880c-20ef-405b-b0a7-d0bb40a2124c,David Doe,david.doe@example.com,1951-09-01,634 Oak St,,Fairview,PA,,,
21c6efc8-fddb-416e-b5cd-a0bb0e6974e5,Bob Taylor,bob.taylor@example.com,2000-12-12,143 Birch St,,Madison,PA,,,
96102cf8-c689-4391-acbb-468c3a62c9b5,Bob Taylor,bob.taylor@example.com,1991-07-24,145 Pine St,,Springfield,CA,,,
b5b9023e-3e7a-429e-b0e3-067269241046,Jane Taylor,jane.taylor@example.com,1993-05-16,644 Spruce St,,Madison,TX,,,22648e1c-fd46-4829-83ac-de655e6e07de
b2071ca3-426c-4ea4-aff9-9e295e574398,Michael Taylor,michael.taylor@example.com,1992-08-25,577 Oak St,,Madison,PA,,,fea61bb9-74fd-43cb-a948-ab402a1124c5
c728d591-687e-4554-87d3-6f0ec1132f81,James Williams,james.williams@example.com,1995-10-30,383 Pine St,,Greenville,NY,,,218552d0-21de-444a-b407-31bdcc51da66
d64352a0-44f2-4574-b3ed-f4da7ac03d00,Michael Wilson,michael.wilson@example.com,1959-02-06,967 Cedar St,,Riverside,IL,,,
67f3ad0f-3cf7-4017-80d4-51a327454585,Alice Davis,alice.davis@example.com,1992-03-03,627 Oak St,,Fairview,OH,,,
b6bfd969-1db8-460d-8fef-d51d864ae59a,David Brown,david.brown@example.com,1985-08-17,692 Walnut St,,Salem,IL,,,
aac14690-7655-457a-a94b-658ee4bc8c7b,Sarah Moore,sarah.moore@example.com,1958-08-13,416 Pine St,,Salem,TX,,,
10194a6d-b716-4cc8-9fa8-ee23221a4447,Alice Doe,alice.doe@example.com,1972-09-25,589 Pine St,,Fairview,IL,,,
66492a4f-0832-4f81-9489-589f17cf54fc,James Williams,james.williams@example.com,1993-10-13,919 Walnut St,,Madison,NY,,,1a2d3615-2080-4b06-8550-6b5e370a4ef0
501e7227-02df-4ac4-b0f6-ffaa7fbb9d65,David Wilson,david.wilson@example.com,1993-10-18,172 Pine St,,Salem,CA,,,
27b663b5-ff1d-4c5f-a088-52723a392e94,Emily Davis,emily.davis@example.com,1975-08-10,316 Elm St,,Springfield,IL,,,
1191d49f-470d-45f1-9b07-c02615df67c1,Linda Davis,linda.davis@example.com,1975-05-22,827 Cedar St,,Greenville,TX,,,
2708ec78-e06a-48a5-aa04-268d0924dd24,Sarah Doe,sarah.doe@example.com,1986-08-31,485 Walnut St,,Fairview,PA,,,
e6468d6a-e1b5-4d5b-a2ea-60c3003c9e0a,John Doe,john.doe@example.com,1996-02-18,529 Elm St,,Springfield,IL,,,affebbe3-6de6-44f4-bf60-eea5bb45ee6b
9edafcb5-5d4c-41ae-a6ce-1cd7861f2af9,John Johnson,john.johnson@example.com,1957-03-02,161 Maple St,,Springfield,FL,,,
180e2c78-08a8-45c4-ab7b-157f3306bd4b,Jane Miller,jane.miller@example.com,1957-09-23,636 Oak St,,Springfield,NY,,,c8ee0776-337e-4e28-83c2-e518086436f0
2328aaa6-66aa-403f-9ad9-cd37d7a8a8b6,Bob Wilson,bob.wilson@example.com,1966-07-19,531 Spruce St,,Greenville,NY,,,fce75063-c1ef-4e9c-985b-bcc3d555b1c1
04615b9f-e0db-4d96-aca4-09eb4ec77e1d,Emily Williams,emily.williams@example.com,1960-09-09,107 Cedar St,,Greenville,TX,,,
3dbd439b-19c9-4080-bb7e-20a07d7e46d6,Linda Davis,linda.davis@example.com,1998-10-27,931 Oak St,,Madison,OH,,,52ce642d-6299-421c-8241-32e7d6c38e4b
884d1cea-c48c-4320-a549-c1ec53ff1acd,Sarah Davis,sarah.davis@example.com,1999-01-08,857 Pine St,,Riverside,CA,,,
dec596b5-e435-447e-9329-d26a0d461a5f,Michael Brown,michael.brown@example.com,1974-08-23,845 Pine St,,Salem,OH,,,
dc5743de-9cd9-48d4-a3ab-c3db142b4404,Emily Johnson,emily.johnson@example.com,1958-09-23,113 Maple St,,Riverside,CA,,,
a8546d76-3b96-46c2-9b7e-dec2c10f3fbd,Alice Doe,alice.doe@example.com,1988-07-10,117 Spruce St,,Springfield,TX,,,074b4f99-1548-4abc-9901-e0c7c9bf2c91
fc831072-fbaa-44c0-a15d-0a7af7522fca,Bob Williams,bob.williams@example.com,1957-09-14,954 Cedar St,,Georgetown,CA,,,8a915126-bb79-4aa9-bc5a-a6c9f727e20f
76ba6211-5a89-4222-ad07-4d675dabb176,Sarah Taylor,sarah.taylor@example.com,1977-03-29,167 Oak St,,Georgetown,OH,,,67ae5f6c-8049-4b3a-bb3c-9e4ed72d4eb0
01bb1d40-f896-4409-ba7a-7b172833a76b,Alice Davis,alice.davis@example.com,1973-09-15,941 Elm St,,Greenville,NY,,,
fb2f19f0-3061-4b0a-b80d-99c98f200dcd,Bob Taylor,bob.taylor@example.com,1973-11-07,399 Maple St,,Georgetown,FL,,,
f83f6d59-da4e-4993-8f52-a937c7cf15be,Sarah Wilson,sarah.wilson@example.com,1969-11-01,494 Maple St,,Madison,OH,,,ac87d2b7-74d5-4764-b648-22a35f883f1c
fb6809a1-fc09-4e67-8762-476898fd2c70,Jane Brown,jane.brown@example.com,1982-12-01,352 Cedar St,,Georgetown,CA,,,
d698c3e1-7ed0-49fd-b8a0-44bc74588b93,Bob Brown,bob.brown@example.com,1950-11-28,754 Oak St,,Riverside,PA,,,e6b7f91d-42fb-4df4-b0c2-fd91fe37b833
7742ae54-f77b-4c00-8637-3b1e53519734,James Brown,james.brown@example.com,1999-06-12,311 Cedar St,,Riverside,TX,,,d13aa7ff-db8f-41a0-adb3-a69eb2a11606
e2256784-bce1-414b-9e43-8911e5db472c,Linda Davis,linda.davis@example.com,1995-04-05,101 Birch St,,Greenville,PA,,,
5ce8c828-6332-4478-b5f3-587dce12ed04,Linda Doe,linda.doe@example.com,1981-08-28,920 Elm St,,Georgetown,OH,,,
287284bc-5693-4f7f-aebf-2ed787d9c54d,James Brown,james.brown@example.com,1977-04-14,320 Spruce St,,Fairview,IL,,,f3cc6fac-ca21-4f89-8d8a-caf430c6a698
4871c4cd-614d-4c28-8b49-36548c0d10ac,David Miller,david.miller@example.com,1975-07-18,480 Elm St,,Georgetown,PA,,,192b9154-f6c9-4144-839b-d8198823ba19
d99f86ed-3510-4741-9618-2e88f2e6c1ae,Michael Brown,michael.brown@example.com,2000-12-30,333 Spruce St,,Madison,CA,,,ce822e2a-819f-4a93-8d88-b97672f88979
a16de2ba-0d09-4214-a149-2ea9856feb5e,Bob Miller,bob.miller@example.com,1976-12-24,665 Walnut St,,Greenville,PA,,,d181ce9d-5bb1-4226-9463-7a5e75f9f2db
559e5c83-c54e-43c4-8d5f-dbfdbd11e622,David Wilson,david.wilson@example.com,1986-01-24,500 Oak St,,Madison,TX,,,46b3045f-244a-4742-87b4-4f54b18e12b9
dd4c1638-15d5-49fc-91ab-258ca9f99da4,Bob Johnson,bob.johnson@example.com,1978-07-15,516 Birch St,,Riverside,CA,,,6531fdb6-cdc1-474b-a550-7f6a9abab0b4
8fec59e6-d746-4886-a4fb-5dcb297f7939,Emily Doe,emily.doe@example.com,2000-06-12,465 Spruce St,,Georgetown,FL,,,
5df2f826-0458-4897-b67d-257e07b09dfb,Linda Wilson,linda.wilson@example.com,1958-11-10,603 Maple St,,Riverside,CA,,,
2d6f2379-d39b-407c-985f-d7e068d6b2e9,Jane Moore,jane.moore@example.com,1964-07-05,679 Elm St,,Madison,NY,,,ed9914fe-0300-4e48-a382-ce8c9348d10e
287f02eb-3dcb-4059-82c0-e979cfed2ad2,Bob Wilson,bob.wilson@example.com,1991-12-30,509 Birch St,,Greenville,CA,,,192d92c3-530b-460e-9a74-f487a6acc374
5954d0cf-3883-46e5-9fb7-f71905b9b7ed,Sarah Smith,sarah.smith@example.com,2000-04-14,304 Cedar St,,Springfield,TX,,,
95718078-472f-49b4-acff-8b14e7acea9e,John Williams,john.williams@example.com,1965-01-20,959 Oak St,,Fairview,NY,,,b5ae845e-22e7-4338-860a-555d20cbb36d
6048bc70-982f-463f-a6b0-7b395af35b93,Alice Miller,alice.miller@example.com,1958-04-22,820 Cedar St,,Georgetown,TX,,,b2160f1b-87d5-4642-bea8-c5a9ec48f3fa
941ba1d5-6c8b-48e3-83d3-f6c269921d1d,Emily Brown,emily.brown@example.com,1986-09-19,288 Pine St,,Madison,IL,,,
ac4ebd6e-484c-49e7-aabc-60a147357440,Michael Williams,michael.williams@example.com,1955-12-22,688 Pine St,,Madison,IL,,,
eda5dcf8-0479-45e8-999f-3e783e557e55,David Smith,david.smith@example.com,1981-03-02,151 Spruce St,,Madison,CA,,,
ca498f5a-91e9-4a9c-811f-5ab6bdcb9c28,David Moore,david.moore@example.com,1994-07-17,847 Elm St,,Salem,TX,,,288708b3-77b4-4961-9ae6-6975d8050fb2
3218c312-1409-4838-a8f2-1b8474fbfea0,David Taylor,david.taylor@example.com,1953-03-04,334 Cedar St,,Riverside,FL,,,da64d868-9af9-48ee-9c74-8e9469bb8238
646682c1-544f-4329-b10a-e3420eec4ba2,Sarah Brown,sarah.brown@example.com,1965-12-27,801 Pine St,,Salem,OH,,,
794aeaa5-fed4-4103-8ff5-33128c9ec2b6,James Johnson,james.johnson@example.com,1975-07-26,632 Pine St,,Georgetown,NY,,,
76c6f3b4-de91-4641-9117-745406edd895,David Smith,david.smith@example.com,1951-11-05,669 Oak St,,Riverside,CA,,,
2a724de2-a5e9-4d37-9fa6-dff0b6ff5f76,Emily Wilson,emily.wilson@example.com,1958-03-09,265 Maple St,,Riverside,FL,,,
bb405960-a4e7-44c4-a605-268710e0adb2,Sarah Miller,sarah.miller@example.com,1976-05-23,384 Pine St,,Springfield,IL,,,
f0e411ff-a6b9-4efb-bc4f-933c601b4edc,Jane Smith,jane.smith@example.com,1976-12-02,497 Birch St,,Greenville,IL,,,d2a291c9-a9b4-4694-93eb-6aae03d305b5
72908219-f532-4ff7-9000-7767541c4645,David Wilson,david.wilson@example.com,1972-08-28,546 Elm St,,Madison,CA,,,3ef7a877-803d-4014-8a7d-9c966689066f
328dcdd9-1279-452c-9b8c-59c19e4308a9,James Johnson,james.johnson@example.com,1956-12-11,892 Cedar St,,Riverside,FL,,,
4bdb5199-9df3-499c-8e0b-28a7d368893b,John Smith,john.smith@example.com,1970-05-14,331 Birch St,,Fairview,NY,,,
c550d18e-6d04-48f5-9b8e-2b8cc051b8f4,Bob Wilson,bob.wilson@example.com,1970-11-28,850 Elm St,,Springfield,PA,,,
9c29bf6e-7002-45b1-88e8-a8264f0ec541,Jane Brown,jane.brown@example.com,1977-06-29,473 Birch St,,Springfield,PA,,,
420aa7df-ba3c-47ff-bc3a-777004e99a94,Linda Wilson,linda.wilson@example.com,1984-05-30,991 Pine St,,Georgetown,OH,,,
5f9759e6-3187-4c14-8dc9-877fc1a52b92,Linda Miller,linda.miller@example.com,1953-03-04,625 Oak St,,Madison,FL,,,ac5c4a94-0376-4835-9e68-cec4acf3563c
6208148b-35a5-4b98-a7d5-22251004eb4d,John Miller,john.miller@example.com,1958-09-24,638 Maple St,,Springfield,PA,,,fdaab803-30ad-4606-bbe0-591d9bf32a74
4646fbfb-63b2-478c-8016-413e54c1e7e2,James Brown,james.brown@example.com,1951-03-28,351 Oak St,,Salem,NY,,,0d912764-c357-48bf-8013-b8f5746bf6db
e3097b88-bb51-4a73-9d7e-a1958fe8b681,Jane Miller,jane.miller@example.com,1957-08-25,938 Cedar St,,Madison,FL,,,d7162b15-733e-4d96-9dcc-e8917b335c5f
adc1b607-de98-4768-92c5-2e8e220bceb1,Linda Smith,linda.smith@example.com,1968-02-10,677 Birch St,,Fairview,IL,,,
0bac4462-226d-46bb-a023-60efb67aa2ef,Sarah Moore,sarah.moore@example.com,1951-06-28,471 Cedar St,,Salem,IL,,,
51a367b2-c7e2-4cbc-8ecb-9f7e6c21371c,Sarah Johnson,sarah.johnson@example.com,1968-06-13,292 Spruce St,,Fairview,IL,,,
be7d6c75-4e0a-46b4-a932-f8f57caa3b3a,David Smith,david.smith@example.com,1962-09-22,891 Oak St,,Riverside,OH,,,
de6db0f5-c35c-4426-a627-e68cf1e2df49,Sarah Wilson,sarah.wilson@example.com,1984-02-27,600 Pine St,,Georgetown,NY,,,a0d272e6-3775-45e0-b89d-f043f17697d2
9f1d3f9e-50fa-41c1-8d5d-a5eccce66c3a,Sarah Taylor,sarah.taylor@example.com,1952-04-23,395 Maple St,,Georgetown,FL,,,306803a9-b4d5-44a3-a2c9-52b6f9acd2e1
dd77f646-dfce-47ec-8912-2a61245f339d,Sarah Doe,sarah.doe@example.com,1955-08-31,411 Maple St,,Greenville,OH,,,35f6aba7-8990-418d-b47d-1a44e97b9328
29516463-c979-45e2-8789-a90941b7ca79,Emily Taylor,emily.taylor@example.com,1963-11-16,414 Elm St,,Riverside,IL,,,
7e310131-9857-437f-9555-e5a6ae22d943,John Davis,john.davis@example.com,1978-08-25,560 Oak St,,Fairview,TX,,,9a9d7f57-d6aa-41ec-bac1-2a714a8e1ff3
bf006418-d1fd-43bd-a0d6-4907f1e2226f,James Doe,james.doe@example.com,1979-01-22,757 Elm St,,Fairview,IL,,,
39d3ec21-c92a-4273-b8ed-e56709c2fe7e,Bob Taylor,bob.taylor@example.com,1992-07-20,648 Walnut St,,Riverside,FL,,,
422d93d3-a249-457a-8314-816e9502dfb5,Alice Davis,alice.davis@example.com,1977-10-07,455 Birch St,,Springfield,TX,,,
dcc00291-d066-405c-a2fc-8671740706e4,Alice Taylor,alice.taylor@example.com,1967-10-13,675 Walnut St,,Fairview,PA,,,40134779-84ad-4888-a966-0885911fcec1
a16eab66-2668-4b4f-bd75-51da0c027c32,Linda Doe,linda.doe@example.com,1950-04-11,766 Oak St,,Georgetown,NY,,,
429e755a-0580-420b-a3d7-64cb6b4a9ea4,Michael Miller,michael.miller@example.com,1973-01-28,192 Maple St,,Springfield,PA,,,af7ebcba-64da-40fb-bbbc-c518a58d7f68
4ed03216-94cc-4f80-b2bf-b71574b266ac,David Brown,david.brown@example.com,1982-01-10,556 Oak St,,Georgetown,PA,,,
58dcf221-3c88-4a63-add9-52e79fd84fe5,James Davis,james.davis@example.com,1997-11-23,694 Oak St,,Riverside,PA,,,72785460-738c-4021-a984-e525834d45b1
b898f455-76d6-4dc4-9744-a721cd678a14,Bob Brown,bob.brown@example.com,1972-07-25,453 Oak St,,Georgetown,NY,,,386e790a-7731-4551-8ef4-754b69591edc
dceea108-25ee-4a87-89cf-0706d8197f5b,James Wilson,james.wilson@example.com,1995-11-04,185 Walnut St,,Georgetown,IL,,,
e03832cf-014c-4ee4-b828-1cb1baa38777,John Johnson,john.johnson@example.com,1953-11-17,628 Pine St,,Madison,NY,,,
b4ea5199-2883-4aba-a570-4667a02b3ef4,Bob Moore,bob.moore@example.com,1978-08-02,610 Elm St,,Georgetown,CA,,,
6eca1015-ebc8-46a1-98b5-5e3ace3c997e,David Taylor,david.taylor@example.com,2000-02-16,838 Oak St,,Fairview,FL,,,a6efd735-6a71-4709-93ec-4be4af2bed29
24470ce6-c1db-41a1-9094-95e8706236f4,Alice Miller,alice.miller@example.com,1982-09-22,492 Oak St,,Fairview,NY,,,
4a4bcd48-818e-4d09-9003-fd0510598116,Jane Williams,jane.williams@example.com,1973-03-06,374 Oak St,,Salem,NY,,,64a6b711-c9a8-4ce2-b06b-6eb0cca5dd62
6275b3e5-07fe-47ab-9b5d-d8ac21170b2f,Emily Wilson,emily.wilson@example.com,1984-11-17,737 Walnut St,,Madison,TX,,,
369c22ba-ed27-4a20-868b-3f0bcf99d6d1,David Moore,david.moore@example.com,1960-09-03,356 Oak St,,Greenville,OH,,,54d5b39b-6906-4e19-9b37-bb6d2a9054a3
7462cd9f-0489-4033-8533-528801c71eb9,Alice Johnson,alice.johnson@example.com,1982-12-12,241 Spruce St,,Madison,OH,,,
e77c1dd3-125b-48bd-b23c-1bbe720dbd38,Alice Miller,alice.miller@example.com,1973-07-17,157 Spruce St,,Madison,NY,,,b7ef410c-7b75-489a-a2dc-cdf04f5d84ce
a9a5adc3-b06e-4679-b66d-53ab73b90495,Linda Taylor,linda.taylor@example.com,1981-01-11,893 Birch St,,Fairview,OH,,,a8d5fcef-e7db-4c80-862b-43a1e0fa76cf
1888bc2c-cf9c-4b85-9810-acbef72df32a,Michael Williams,michael.williams@example.com,1955-06-23,105 Oak St,,Madison,FL,,,
28c4cc9d-9e00-4e3c-b685-b9af36598049,Bob Wilson,bob.wilson@example.com,1950-05-02,217 Cedar St,,Greenville,IL,,,1e96ea14-2437-4d75-bbb2-9d0abafcd47b
1fdb90d6-09cc-4696-91a0-d27b4f33d9e6,Linda Taylor,linda.taylor@example.com,1996-07-04,109 Oak St,,Fairview,FL,,,dcf1ccb2-9993-4a5b-87af-e7d7cfca980a
a47f0a03-a653-41f5-aafd-626a927883c7,Emily Taylor,emily.taylor@example.com,1976-07-04,363 Birch St,,Riverside,IL,,,
47929888-24f2-4198-8913-4912dde1e81f,Alice Doe,alice.doe@example.com,1954-11-01,134 Pine St,,Springfield,CA,,,
95c5cfdc-f33a-4af8-95ce-3f72ec5e5255,Sarah Wilson,sarah.wilson@example.com,2000-01-11,851 Walnut St,,Madison,CA,,,
3a349669-54ae-40b5-a23c-59fb4d080961,John Johnson,john.johnson@example.com,1996-06-21,398 Cedar St,,Greenville,OH,,,cacf19fa-f775-4565-af26-441f72729f22
7f2e0df6-d6f8-4bc9-8074-21d5e694ada9,John Doe,john.doe@example.com,1954-09-14,987 Birch St,,Fairview,TX,,,1671e01e-f9ed-404e-8724-305bbc3dfd97
5776ab18-77d5-4589-a8cd-a351ef5f13b4,John Smith,john.smith@example.com,1957-10-03,833 Pine St,,Georgetown,PA,,,04a593f5-4c1b-4e1e-b68b-9d67cfb7c255
7cd0fb70-44ea-4b41-b8c9-c1fea6f27191,Jane Moore,jane.moore@example.com,1996-04-26,845 Cedar St,,Springfield,NY,,,
5c3225f6-d143-4ec6-ac80-9c3f464d692a,Alice Davis,alice.davis@example.com,1951-08-14,933 Spruce St,,Madison,TX,,,98c1c575-a85b-4a3b-8732-e6c9a340f23b
5f0c95bf-a04b-466a-a420-d543d4764475,Alice Miller,alice.miller@example.com,1972-10-10,869 Oak St,,Salem,OH,,,
57b0246c-d98c-4cdf-855a-044633e96ed0,James Davis,james.davis@example.com,1953-07-20,849 Elm St,,Salem,TX,,,7b34845c-374b-450e-b0aa-87e07cd9e874
753bc2d2-109b-469a-a9fd-cf7aac40f15d,David Brown,david.brown@example.com,1990-11-16,495 Spruce St,,Madison,IL,,,0eb944e8-be94-4c72-a267-9ef03dc0d9a4
b5190490-6b6a-4c2e-8591-404904821696,Sarah Brown,sarah.brown@example.com,1980-04-18,636 Spruce St,,Greenville,TX,,,
3ae40f59-39c2-4a4b-93ba-f505795ff7de,Linda Davis,linda.davis@example.com,1967-06-26,444 Elm St,,Greenville,PA,,,
181f4a9d-3281-4887-9cbf-fb40f7420dd6,David Doe,david.doe@example.com,1961-10-25,671 Birch St,,Salem,OH,,,23fdb873-2715-414c-bad6-4433d241265a
5ecda1c5-4e04-4114-a843-0e60cb3d56bf,John Miller,john.miller@example.com,1984-06-12,198 Pine St,,Fairview,NY,,,
5c6a3eaa-3ee0-4d8d-b7f1-60aff41a8211,Emily Williams,emily.williams@example.com,1966-04-23,421 Walnut St,,Riverside,NY,,,c05170df-e498-4e1b-b5fc-dd8915dfb2cb
64485ed2-6478-41b5-bf36-0569d1998216,Bob Johnson,bob.johnson@example.com,1959-05-18,485 Spruce St,,Fairview,FL,,,
25f69536-5b14-4745-a3e8-bcee0bbb06ee,Alice Moore,alice.moore@example.com,1997-03-29,376 Cedar St,,Madison,NY,,,
7e7afdaf-20f8-4253-86f2-a903ac140d01,David Johnson,david.johnson@example.com,1957-03-10,137 Birch St,,Madison,PA,,,a3b8e39e-7a29-45a8-87f8-28dfe1fa6ef6
3ce3a199-bb01-45c1-9772-83104de7e6cd,Sarah Davis,sarah.davis@example.com,1980-04-23,958 Walnut St,,Madison,NY,,,
776eec50-060c-4cd3-81c1-3068f5b8ee8d,Bob Williams,bob.williams@example.com,1998-11-17,297 Oak St,,Madison,IL,,,6e006b4a-0b33-4e72-bf43-23372366412d
8b70bdcf-ee33-40a9-901e-c5b27eb8c4b4,Linda Miller,linda.miller@example.com,1981-09-20,103 Elm St,,Springfield,TX,,,407ac96a-b53b-4a1d-9379-b948b9da03ba
ddf17ab9-c666-414a-b7ea-e4a1d7b703f4,Emily Williams,emily.williams@example.com,1992-02-07,744 Oak St,,Riverside,PA,,,5c8aa0a3-0018-4f9e-a67e-2a240fb80595
a637cb85-a067-4acd-bf1e-8f9be5dce5d9,James Taylor,james.taylor@example.com,1994-10-05,236 Walnut St,,Riverside,IL,,,
e6ec0e30-eeec-4a83-89b7-d949e3b1f438,Bob Wilson,bob.wilson@example.com,1955-03-24,513 Cedar St,,Fairview,CA,,,
c895d8c4-d194-44d9-9964-d2c42de6ec60,Alice Williams,alice.williams@example.com,1956-06-02,696 Maple St,,Madison,NY,,,
ae27ae64-c5e7-4e02-b518-4f5308a48acb,John Wilson,john.wilson@example.com,1976-04-27,449 Spruce St,,Riverside,IL,,,
e37b1746-d8ca-4e9f-963c-abc622d4f57c,Sarah Doe,sarah.doe@example.com,1980-02-25,100 Cedar St,,Springfield,NY,,,097d4c99-6d98-4e44-977b-650b6560843d
61ced82e-88bc-4390-9a41-b772f0327511,Jane Miller,jane.miller@example.com,1963-10-20,101 Oak St,,Madison,IL,,,
985fc225-854e-4d92-9341-713b34683b6a,David Taylor,david.taylor@example.com,1971-10-14,205 Pine St,,Springfield,IL,,,11740479-8fb8-4422-836f-87a90da343fa
2479e114-369e-4e25-9da4-95bdced47d05,David Miller,david.miller@example.com,1995-05-08,599 Birch St,,Fairview,CA,,,
395e91d6-0e14-43ed-a669-ea48e8c05013,James Brown,james.brown@example.com,1985-09-18,810 Maple St,,Springfield,PA,,,f87c4249-de3a-45f4-9cfb-e5e239576664
daf70a55-824c-4f65-b07d-95e4fe8b3932,Emily Smith,emily.smith@example.com,1975-04-20,217 Pine St,,Springfield,OH,,,ba049992-ef6e-464d-8d2a-157cc563e35c
13ac5939-b933-4574-964f-d2c9e0b2de76,James Williams,james.williams@example.com,1985-06-17,364 Elm St,,Greenville,CA,,,ab22182a-04e8-4927-81be-6be18731ecc8
cffb8ff7-0354-42a0-8877-b62350f7e94f,David Moore,david.moore@example.com,1983-06-09,783 Elm St,,Madison,TX,,,
6105bb40-d337-4597-b639-7b60b58c8559,Alice Brown,alice.brown@example.com,2000-12-02,196 Oak St,,Salem,OH,,,
ef37c9d4-f9d3-4a4f-824b-3d0172407ca3,Jane Doe,jane.doe@example.com,1959-01-29,814 Birch St,,Madison,FL,,,
6733dd7b-e35f-4eee-951d-245eb3efcedf,John Brown,john.brown@example.com,1988-07-17,395 Pine St,,Salem,OH,,,a5fcfe52-ac30-4651-97b5-40abe4398c4e
c5cd95f8-b129-4056-97c4-0b84f7d61b10,Bob Williams,bob.williams@example.com,1965-07-30,105 Walnut St,,Madison,FL,,,
aca7b7a5-7615-4a69-b092-a7f3e7f155dd,John Miller,john.miller@example.com,1961-06-13,498 Spruce St,,Madison,IL,,,
fbcf1093-da08-4e83-832d-40eab8bc1703,Sarah Doe,sarah.doe@example.com,1989-03-15,512 Cedar St,,Springfield,TX,,,a81fb8ed-dcd3-4271-ac98-8be2968bb8a0
531ffbb3-b4e8-400d-9268-18ea7483b953,Michael Moore,michael.moore@example.com,1976-06-09,679 Maple St,,Salem,CA,,,
101a6583-760c-4be6-a92f-1b71cb116fb4,Jane Doe,jane.doe@example.com,1983-10-09,235 Pine St,,Madison,CA,,,9e25dffc-270c-4470-b605-a158005739f8
83a03376-8cb9-43ef-be6f-fb727713edd4,Linda Miller,linda.miller@example.com,1997-02-27,783 Birch St,,Riverside,FL,,,
832389b6-38c0-4384-b80a-a585acb099cb,John Brown,john.brown@example.com,1978-03-28,851 Birch St,,Madison,IL,,,
9a9dded1-d339-4b43-9b3e-21e199458937,Linda Williams,linda.williams@example.com,1971-10-13,241 Elm St,,Fairview,OH,,,
0b783b8f-2c2b-477b-97bd-e4f2ba28c73d,Emily Doe,emily.doe@example.com,1995-09-12,144 Cedar St,,Georgetown,CA,,,
88eaf2c0-ea64-40a8-a1a0-c64df4fbe6dc,John Doe,john.doe@example.com,1987-12-01,402 Elm St,,Madison,OH,,,
21b41628-09a0-4b52-8841-53ec1b6810a4,Alice Johnson,alice.johnson@example.com,1951-11-16,709 Cedar St,,Springfield,CA,,,dd4ebd0e-c212-4391-a0cd-04d357c4a94a
9e7c4dd0-d7a3-487f-8d10-f43375b1cd5b,Linda Brown,linda.brown@example.com,1975-11-14,797 Birch St,,Riverside,CA,,,
4e82dd62-740e-49ac-af5f-9e5303f5e08a,Linda Johnson,linda.johnson@example.com,1968-12-28,227 Oak St,,Salem,NY,,,9fa7c56b-44aa-46fb-a8c4-869e38a8cea7
2df3d0f4-764f-43d1-ac77-3290878187ab,Bob Brown,bob.brown@example.com,1992-06-15,635 Elm St,,Salem,NY,,,a4f61014-2f0d-48b3-8af7-e941ea5f4fd5
bb91fe01-8677-42f2-b15c-8f11900b5490,Michael Williams,michael.williams@example.com,1980-03-20,195 Walnut St,,Georgetown,NY,,,
a76c7521-d975-4ead-8ed9-bbe90f22d6db,Michael Miller,michael.miller@example.com,2000-02-21,881 Walnut St,,Springfield,IL,,,ee39811a-afd5-40ce-a776-71fe710a2e42
9c7f98a8-b4a7-4fb9-b9f9-6bec67e03b6a,John Williams,john.williams@example.com,1969-02-21,609 Maple St,,Georgetown,PA,,,247328ca-5956-4782-8b2b-4aeba03ace80
1e3313e6-735c-4df7-96a8-fccc186603fd,David Johnson,david.johnson@example.com,1959-08-24,385 Maple St,,Salem,FL,,,
95c4e3b5-a80a-4c0b-8808-7307c7c29e43,James Johnson,james.johnson@example.com,1982-07-02,255 Oak St,,Salem,PA,,,
2c02856c-a971-4f19-ba01-436acbb7baf9,Bob Taylor,bob.taylor@example.com,1986-07-25,459 Maple St,,Madison,IL,,,
041896dc-0cc3-4433-a127-a992b0f0dfd4,Michael Johnson,michael.johnson@example.com,1954-01-15,999 Maple St,,Madison,OH,,,
60d8ca67-408b-4ebf-adaa-bb501998a8bc,James Davis,james.davis@example.com,2000-10-11,863 Birch St,,Salem,IL,,,0b5b91a5-bd72-45d4-a384-c2a6eeea19ac
a3788165-2abb-44d3-a640-d87e323898ee,James Smith,james.smith@example.com,1991-01-04,246 Birch St,,Greenville,CA,,,48224f27-dc75-459e-9cf5-cb24ae8f9572
a7eb2adc-f070-4fd8-95ab-147a6b8b01f1,James Miller,james.miller@example.com,1956-09-25,389 Pine St,,Fairview,OH,,,32a0e603-19f5-406c-bb59-0eb4f83fe848
a63ba62e-6343-47eb-93e4-69dea48fe56a,John Smith,john.smith@example.com,1963-02-18,880 Cedar St,,Georgetown,TX,,,4f2c5718-8417-413d-a3eb-28e5be379cb9
65d766cb-e4aa-4dab-8a27-a4b88430fbdb,Bob Doe,bob.doe@example.com,1966-03-01,783 Oak St,,Greenville,NY,,,
e1237726-53e4-4106-bafa-3d5962412439,Jane Davis,jane.davis@example.com,1956-07-14,668 Maple St,,Madison,FL,,,
16f4867b-909b-4d49-9cb4-ac887fa0d2f4,David Wilson,david.wilson@example.com,1987-11-12,842 Walnut St,,Springfield,IL,,,417c00b2-96ca-48dc-94e9-e0d17d8f453b
2071fcad-7dea-4696-9f9b-04b734e02d0a,Emily Miller,emily.miller@example.com,1985-10-01,875 Cedar St,,Salem,NY,,,9a9325cb-c00e-49b6-a7c1-6ff32e566ac9
5144f90c-0a92-42a0-860f-283db91264a3,Emily Johnson,emily.johnson@example.com,1976-07-14,291 Elm St,,Greenville,CA,,,bfe8c692-749e-4738-8f5f-2b53548c88aa
5ee3dc7c-85bd-45e2-9953-aa682c470467,Jane Smith,jane.smith@example.com,1963-07-24,196 Maple St,,Georgetown,OH,,,251b11e9-18d1-4b6a-989d-1f80964be7f9
5ba7f68e-a964-4fd5-b750-e592df7fa665,Michael Brown,michael.brown@example.com,1999-01-13,480 Elm St,,Georgetown,NY,,,
58998806-3659-4207-8fcb-a3f423d43f2a,Linda Williams,linda.williams@example.com,1982-08-20,536 Cedar St,,Riverside,OH,,,
3626b9a4-5f16-4c46-8fa8-ec0c3b7db7aa,John Johnson,john.johnson@example.com,1981-10-03,164 Walnut St,,Riverside,NY,,,76f577d2-efe0-40b8-a0f8-1fba85923cc1
d2c2f3e5-a032-469f-b0eb-991a45178905,Emily Moore,emily.moore@example.com,1973-09-16,627 Birch St,,Riverside,IL,,,
4a963c03-04c7-428b-980d-31bb4f34ab68,Bob Miller,bob.miller@example.com,1963-07-01,100 Elm St,,Springfield,NY,,,
e2922447-f86d-4240-acc7-14a720951e9c,Sarah Williams,sarah.williams@example.com,1962-07-01,181 Spruce St,,Salem,IL,,,
640b76a1-89cc-4a4c-84a6-436d8c47f61d,James Davis,james.davis@example.com,1969-08-08,203 Elm St,,Riverside,FL,,,17e234fd-28dd-462d-b101-f5f35c0c8ce1
83059a8d-79c4-449a-9371-4a72f22ab8d3,David Wilson,david.wilson@example.com,1969-09-24,597 Walnut St,,Salem,NY,,,
d52aab2f-adec-4491-908e-f4bd871c897f,Bob Miller,bob.miller@example.com,1955-03-30,732 Spruce St,,Salem,PA,,,
4c88f6d9-cf23-4df0-a662-e03c48e1d53d,David Smith,david.smith@example.com,1991-03-18,585 Maple St,,Riverside,CA,,,
faaeb4ef-ff96-4360-85c6-0cbd54919098,Emily Miller,emily.miller@example.com,1972-11-22,791 Birch St,,Fairview,FL,,,6841cad3-fecc-4b99-8558-79833640d905
c994de42-6f30-47b0-b99e-01a001f93099,Linda Smith,linda.smith@example.com,1956-10-23,867 Pine St,,Fairview,CA,,,7df6be00-02cc-4f82-b97c-ef6a29f3bb79
d1fd5cbf-c234-4c16-897f-37b2d474d86e,Alice Smith,alice.smith@example.com,1969-08-22,137 Walnut St,,Greenville,TX,,,
10873b50-ac45-43b9-ae45-7cfca052ab2c,David Doe,david.doe@example.com,1976-01-04,789 Walnut St,,Greenville,CA,,,0495f216-3bb1-4fe0-aa9e-0875c3461354
02bdd0e6-2c1b-4933-885d-9a9a75371658,Michael Brown,michael.brown@example.com,1984-01-24,811 Birch St,,Fairview,PA,,,d03ede43-ffc7-41e7-a842-5593909a1a62
3791fbdc-83a3-48ef-8401-2388968032ef,Michael Smith,michael.smith@example.com,1958-01-16,353 Pine St,,Madison,NY,,,ee27e453-6458-421c-9398-9ba41870414c
32e3cece-e02e-4ed4-9174-0922ad8ba5cc,Alice Wilson,alice.wilson@example.com,1965-04-04,103 Pine St,,Riverside,PA,,,
50a94b78-c553-4665-b056-287004561742,Linda Davis,linda.davis@example.com,1953-10-04,613 Spruce St,,Springfield,IL,,,
62087fae-4a16-4200-832d-65d1061ae54e,Jane Brown,jane.brown@example.com,1959-01-28,276 Cedar St,,Greenville,NY,,,
d9f76019-f45b-40cb-8399-cbffedfe1e7f,Emily Smith,emily.smith@example.com,1987-08-29,487 Cedar St,,Fairview,OH,,,
5d96427d-32c8-4230-9e76-a53106e7a566,Jane Williams,jane.williams@example.com,1981-07-12,760 Cedar St,,Springfield,CA,,,c6cb2603-1225-4f97-956c-b3ebf7d23c90
cce04ba0-beab-41a0-b4de-a2b8ffecf039,John Doe,john.doe@example.com,1953-10-18,477 Cedar St,,Georgetown,TX,,,f36af362-17ae-4cbc-b10d-c215769cdb71
a86e8902-4bcc-4462-b904-3c3046615a08,Emily Taylor,emily.taylor@example.com,1991-01-22,475 Cedar St,,Georgetown,OH,,,
54a8ccc4-2931-49ea-9108-1d7b32952517,Bob Moore,bob.moore@example.com,1991-09-10,891 Elm St,,Salem,CA,,,a00c5cbf-56aa-48ae-aa73-d6003f2e7e1b
809b584a-48e1-4102-a0a5-c5223abeaeb4,Linda Johnson,linda.johnson@example.com,1987-01-28,362 Pine St,,Madison,OH,,,
6beca90e-3373-4284-a025-0e076dc09e1e,Sarah Brown,sarah.brown@example.com,1978-12-26,458 Birch St,,Georgetown,FL,,,e5bff942-f783-4e1a-91c3-91671cb9e683
d2804277-310c-4777-a68a-04f9dce3ada1,Bob Miller,bob.miller@example.com,1969-05-17,408 Birch St,,Georgetown,CA,,,53c0a934-d551-4a0f-8a1e-b43bc63ee587
3be8d1a3-c433-48b2-8db4-a5cae20fc9a5,Alice Johnson,alice.johnson@example.com,1983-06-23,283 Pine St,,Madison,CA,,,
e7d1ba65-f68e-4b49-a945-310e57d03dc0,Bob Davis,bob.davis@example.com,1982-01-02,888 Walnut St,,Springfield,IL,,,0a7dc056-caf1-490a-a5f5-b997426b451a
1ca5ae8f-1c92-4e61-94e8-2344ec609678,Alice Williams,alice.williams@example.com,1993-12-31,444 Oak St,,Madison,PA,,,26f3d626-69ef-43d4-9b0c-f8156ede6da4
fc49b163-9294-4ea1-b98b-e7512411734d,David Williams,david.williams@example.com,1959-01-23,220 Oak St,,Fairview,FL,,,1a2d2df8-f466-4dc8-9ca4-1f4dbede3fdb
56fcfe9e-1dea-46a9-b9c2-e6f420eeae3a,Bob Smith,bob.smith@example.com,1990-07-27,364 Birch St,,Fairview,TX,,,db65cbdd-caf0-44fe-b260-81789a04b74e
d555573f-ec32-428f-b8dd-d0989a3ec88c,James Taylor,james.taylor@example.com,1961-12-07,511 Oak St,,Springfield,TX,,,cb31dc08-7dbe-466f-8893-86e7ead66b0e
0a7bcd7a-4ea5-4b1e-b026-ee97b9fc4953,Linda Doe,linda.doe@example.com,1955-11-24,279 Birch St,,Salem,IL,,,
4246dc6a-da84-4b71-a4a6-e857331f4b4e,Sarah Smith,sarah.smith@example.com,1994-07-29,393 Cedar St,,Madison,IL,,,
2bffa635-b14b-45db-ba56-fb80390563bf,Alice Smith,alice.smith@example.com,1974-06-03,839 Pine St,,Georgetown,NY,,,
e0a9e273-0c0c-4a0c-8388-c1f954dd9be4,Sarah Williams,sarah.williams@example.com,1966-01-23,907 Maple St,,Fairview,FL,,,
0d655504-9399-4e2d-89af-2c4143309b88,James Moore,james.moore@example.com,1987-06-20,135 Pine St,,Fairview,OH,,,cca4bdb2-cf1a-4278-9bc1-e4cd790bf963
48b0da3c-476b-4c5c-b011-30d721c0a210,Alice Johnson,alice.johnson@example.com,1994-08-30,348 Cedar St,,Greenville,IL,,,
164c425a-ce32-4455-86f5-b04ab5759e70,Michael Williams,michael.williams@example.com,1995-12-27,283 Maple St,,Riverside,FL,,,
26047d48-1d94-4ea1-8b99-c86ab69f531c,James Doe,james.doe@example.com,1962-06-15,224 Cedar St,,Salem,NY,,,
c9908793-442a-45f9-ad36-3f2cb28567c2,Michael Johnson,michael.johnson@example.com,1955-06-28,917 Birch St,,Georgetown,NY,,,
3842ac8e-099a-4b39-aa5b-5d4303aef816,Linda Miller,linda.miller@example.com,1961-05-30,999 Elm St,,Madison,TX,,,
4940f711-1693-4b8a-9f34-a3bc56a17e0b,Michael Doe,michael.doe@example.com,1969-09-20,503 Spruce St,,Georgetown,IL,,,
5cd0b030-9df5-49f5-b904-2904ea87bd47,Linda Taylor,linda.taylor@example.com,1972-02-26,733 Walnut St,,Greenville,NY,,,45f11c16-9f62-486e-8a04-91d5341ba2e0
c50eb0a3-70d9-448d-9505-529021c8a9e9,Linda Moore,linda.moore@example.com,1987-01-31,494 Cedar St,,Greenville,OH,,,
98173c6f-d11c-44f4-9966-3af76fdf6884,David Wilson,david.wilson@example.com,1950-10-10,374 Pine St,,Georgetown,NY,,,82aa1967-0e51-4764-8659-26b52ea845a1
ced90f0f-e5b4-42f3-89a3-34fccfa2f90f,Alice Davis,alice.davis@example.com,1991-07-18,738 Maple St,,Greenville,PA,,,769575f0-ec5a-44d3-aff7-a323fc3e8f48
e537603b-ac00-46b3-b19a-1b7f228fafc6,Alice Brown,alice.brown@example.com,1964-11-02,464 Pine St,,Salem,TX,,,
9369965a-bfc7-48be-b5c2-3ffe990f05a1,Alice Davis,alice.davis@example.com,1974-01-09,136 Walnut St,,Springfield,FL,,,b9983662-d826-486d-970d-9cab96efa74a
08e98232-feb8-47cd-b167-086a5f694de3,Emily Williams,emily.williams@example.com,1995-10-04,904 Pine St,,Georgetown,CA,,,104c7883-798e-464a-88f1-53cc102637b2
fd8af3be-819e-4a05-a8e8-0f15f0a7f4c3,Bob Williams,bob.williams@example.com,1966-09-19,641 Oak St,,Madison,PA,,,3afdcfc6-aef9-4d30-9aa9-105cea182224
85f343cc-fd3f-4475-b317-338306238077,Sarah Doe,sarah.doe@example.com,1950-12-06,732 Pine St,,Springfield,FL,,,dcf70fb7-2c3d-4298-88ed-ca47e4dee929
608c36ab-669c-4123-9d7f-8b1972ec8e3b,Bob Miller,bob.miller@example.com,1971-11-09,259 Maple St,,Salem,TX,,,075c396e-39a0-4402-9c87-dab15082e1d5
6f575106-416d-462d-8a13-98978ddb9986,Alice Williams,alice.williams@example.com,1968-07-31,355 Cedar St,,Riverside,TX,,,
3d37cc27-bc88-4f6b-bbb2-d0adc07298a8,Michael Williams,michael.williams@example.com,1952-04-30,448 Birch St,,Fairview,OH,,,fba80dec-a3ec-4c66-963c-603073387f16
031c1d42-1f07-49f5-8531-15afe739c632,Michael Smith,michael.smith@example.com,1963-10-30,157 Oak St,,Madison,PA,,,891dccb7-ba73-41e1-8ef4-5c5e514babc0
3ffd1c88-2a0c-4b61-82c7-3dd495ff438f,Bob Miller,bob.miller@example.com,2000-02-29,338 Cedar St,,Fairview,IL,,,
0e0aa3df-e2bf-4114-aff0-bf9b5ec7041e,Michael Taylor,michael.taylor@example.com,1992-05-06,614 Elm St,,Riverside,IL,,,
31e300e5-f0ef-4899-a1b9-909f5799d2de,Emily Williams,emily.williams@example.com,1982-11-16,257 Walnut St,,Georgetown,CA,,,05765905-835a-4eba-a37c-83493a1d2d53
e4a53a68-38a4-4498-bc13-f8fb37b21333,Alice Smith,alice.smith@example.com,1968-06-16,506 Oak St,,Madison,PA,,,
6780b33f-39dc-4f15-8e0c-0061d6d54f81,Bob Moore,bob.moore@example.com,1997-10-02,429 Maple St,,Madison,NY,,,77235e3e-c439-4716-8d93-ac95b58186fc
b5f9cf86-4afb-4a49-b8dc-030b12a7f3a0,Sarah Johnson,sarah.johnson@example.com,1970-03-08,271 Birch St,,Salem,PA,,,e238f368-3751-4e7e-90ae-f605f7cf949f
1165db9d-e797-433d-a758-4445586f5229,Emily Wilson,emily.wilson@example.com,1965-10-05,472 Pine St,,Springfield,FL,,,
e8e8387b-9634-4239-a956-2549f26bf4fb,Michael Doe,michael.doe@example.com,1997-12-06,925 Walnut St,,Springfield,TX,,,
7fb04ffd-b2bf-450d-9ac8-0e0e95c0cd75,James Brown,james.brown@example.com,1993-12-27,997 Pine St,,Georgetown,OH,,,
af134f68-a23c-498d-a6ba-f81ed90868d9,David Smith,david.smith@example.com,2000-11-12,374 Walnut St,,Springfield,OH,,,8fa859b5-3947-4af5-a673-232d3af16ca3
37949121-3b04-4a9a-9145-90f78cff18c8,Jane Moore,jane.moore@example.com,1996-11-21,698 Cedar St,,Fairview,OH,,,e1045033-5bf1-4813-b857-3764b63627f6
5f4c210a-d44d-4a31-8701-a69996962ca8,Sarah Johnson,sarah.johnson@example.com,1984-09-02,682 Pine St,,Riverside,IL,,,87157930-02c3-4395-bcc0-fbc28c9dd41d
f4235af3-f9a7-4e0b-af3b-3b85f816047c,David Miller,david.miller@example.com,1977-07-01,526 Maple St,,Fairview,IL,,,
fe71d9c5-968e-4bbd-a3fd-057cd9eb9ff9,Bob Davis,bob.davis@example.com,1990-08-30,684 Maple St,,Riverside,OH,,,9d0b3269-5b7c-4c6c-93a3-e81db4e518c9
f8855e32-1236-4227-807b-47a943cff287,James Miller,james.miller@example.com,1990-10-07,919 Oak St,,Georgetown,IL,,,a2215509-e7b1-4d32-a604-370b38865b71
427477ca-f5df-4cbd-991a-5712446b7afc,David Davis,david.davis@example.com,1997-11-24,998 Oak St,,Madison,OH,,,da8904ea-f68a-4a81-84a2-ba67292e8a5b
0bd69da7-2330-4363-bbe6-7ba0640dced1,James Smith,james.smith@example.com,1953-01-31,730 Cedar St,,Springfield,IL,,,91499e2d-8885-44c5-afed-586741508cfd
c6fd119d-fb25-4b5f-bdba-9a97450dd635,Jane Davis,jane.davis@example.com,1977-11-21,281 Birch St,,Madison,CA,,,
cae6185e-a687-42d8-9bb3-2805a13fbebb,Michael Johnson,michael.johnson@example.com,1974-10-08,611 Cedar St,,Greenville,TX,,,
6e3bcb38-7169-4596-873b-1813e53b09ec,David Smith,david.smith@example.com,1982-11-16,877 Spruce St,,Salem,NY,,,
d65fb1d0-d1d7-4668-969f-06582559f534,Jane Taylor,jane.taylor@example.com,1972-12-16,112 Spruce St,,Greenville,NY,,,1d2f3466-ca51-490a-9ead-6ed2a417e894
25776b75-17de-4085-902b-55617a56a5bd,John Brown,john.brown@example.com,1991-01-09,145 Spruce St,,Madison,NY,,,
8ed4d40c-ff5d-4d66-958f-66b87be9b4a3,Alice Moore,alice.moore@example.com,1991-10-17,432 Pine St,,Fairview,FL,,,5d4baae9-4962-4422-9d06-2bd142ad196b
b54ea553-41b8-497b-8fc3-e7b218dc950e,Linda Taylor,linda.taylor@example.com,1964-12-18,538 Spruce St,,Madison,NY,,,
37835f15-20b3-4251-b221-86ff96a2ad4f,James Miller,james.miller@example.com,1953-10-11,850 Pine St,,Greenville,IL,,,
e81a1448-ffed-4143-9e0c-6f08c937fbe6,James Davis,james.davis@example.com,1973-12-29,592 Maple St,,Springfield,CA,,,8ec739ef-72e2-4233-b4eb-453fe786f879
7f73841c-a34e-4b3f-9232-7c27dc61cb67,Bob Wilson,bob.wilson@example.com,1970-01-31,478 Elm St,,Greenville,FL,,,
fd0415aa-24f2-4e07-9d15-8b77f74aff1e,Linda Doe,linda.doe@example.com,1989-07-12,909 Maple St,,Georgetown,IL,,,
f7b6a5e0-13c2-4900-ad09-bed18582d1be,Michael Wilson,michael.wilson@example.com,1999-09-10,528 Pine St,,Georgetown,IL,,,
a6484501-8e79-4a52-978b-5c97e16be8ce,Jane Moore,jane.moore@example.com,1997-03-08,965 Walnut St,,Riverside,PA,,,
e5ee5910-1062-49e0-b919-25620d49f03f,Michael Wilson,michael.wilson@example.com,1951-04-02,642 Maple St,,Riverside,OH,,,05a9506c-7277-412e-8764-9f57531014fc
f965f908-6108-42c1-9b46-608fcc8362a6,Sarah Taylor,sarah.taylor@example.com,1988-02-15,703 Walnut St,,Fairview,OH,,,
6edfea8a-38bf-42f8-b929-23e31480d98f,James Wilson,james.wilson@example.com,1986-06-17,171 Oak St,,Madison,NY,,,d12214bc-7f19-4771-98bb-0d8a2c41bc25
5dc93f2f-2080-42b1-92c9-ae7897d89374,Emily Brown,emily.brown@example.com,1978-09-24,353 Elm St,,Georgetown,TX,,,
18b2416f-66c0-4882-9cfa-6dea033c8cac,Alice Wilson,alice.wilson@example.com,1999-01-20,272 Oak St,,Fairview,FL,,,e046f482-5da5-4be6-a9ad-8853416e2a30
15318386-1f38-4d14-91a8-1fa7317e915d,Bob Wilson,bob.wilson@example.com,1971-12-28,560 Walnut St,,Riverside,IL,,,
e8be2a62-106d-4b60-a556-563b609a7361,Alice Brown,alice.brown@example.com,1957-11-27,686 Oak St,,Greenville,FL,,,48bd314d-89db-4035-9156-30cdb3ae3fbc
81eb2464-563e-46d4-b1d0-721321e216a7,John Moore,john.moore@example.com,1986-02-13,510 Walnut St,,Springfield,PA,,,cc86663d-caee-4880-92a3-513130e0898d
83908d96-5a8a-430c-ba27-3262bcc30bc1,James Brown,james.brown@example.com,1993-06-23,150 Elm St,,Riverside,FL,,,
38aa8dbc-afcf-455e-86bc-be62ddff28db,John Taylor,john.taylor@example.com,1997-02-27,623 Pine St,,Madison,FL,,,
efe64d39-40b3-4d60-a49f-3fd61fc6c79f,John Doe,john.doe@example.com,1977-09-21,742 Oak St,,Georgetown,NY,,,817bf6df-3803-4ed5-a1b2-03cebb3459c7
da8907cc-b4bf-4c9f-a7cd-9b04c58486b5,Emily Wilson,emily.wilson@example.com,1973-10-04,542 Pine St,,Riverside,CA,,,
ad875a0e-a580-47ba-b47e-e5e160064c15,David Miller,david.miller@example.com,1964-11-03,545 Walnut St,,Springfield,PA,,,5fe42532-b61d-4c3c-a529-635cf939a887
aff47454-89ae-4d98-99a2-0b61e88d32f2,Alice Wilson,alice.wilson@example.com,1976-02-17,340 Cedar St,,Georgetown,NY,,,d27f2c73-57ef-4b80-a9aa-c9253c5a48bc
cd28f03e-ef16-4bda-aad1-1a8303619368,Emily Davis,emily.davis@example.com,1952-08-05,291 Spruce St,,Springfield,IL,,,
6e315a8d-6c35-4d0b-91c4-8bbc1f63f5ad,Alice Davis,alice.davis@example.com,1974-10-11,882 Pine St,,Madison,TX,,,2833b5c8-765f-4a8e-9c98-02f92748e4d7
d4736832-5608-49e1-88f2-f29feeb6a79b,John Moore,john.moore@example.com,1981-11-16,578 Pine St,,Georgetown,TX,,,d52a4120-1d7a-46ac-91d4-749bde33d50e
f7672679-6fbf-43ae-8593-cb267ab35a56,John Wilson,john.wilson@example.com,1967-04-02,866 Birch St,,Madison,OH,,,
bcd7282a-5497-43bc-88fd-5b5ec3b0e5ce,Emily Smith,emily.smith@example.com,1960-01-01,214 Elm St,,Fairview,CA,,,403863ca-ef28-4943-a263-967489308a46
